{"type":"FeatureCollection","features":[{"type":"Feature","properties":{"year":2024,"color":"#C5743F"},"geometry":{"type":"LineString","coordinates":[[115.027078,-34.221439],[115.027869,-34.220997],[115.028158,-34.221001],[115.028502,-34.220835],[115.029119,-34.22078],[115.029416,-34.220684],[115.030541,-34.220027],[115.031034,-34.21993],[115.031373,-34.219768],[115.031827,-34.220106],[115.031833,-34.22049],[115.033193,-34.221051],[115.033361,-34.221618],[115.033593,-34.22178],[115.035807,-34.22173],[115.036322,-34.221779],[115.036362,-34.221726],[115.036174,-34.221592],[115.036152,-34.221486],[115.03652,-34.221326],[115.036495,-34.221029],[115.03675,-34.220993],[115.037599,-34.221469],[115.037953,-34.221535],[115.038111,-34.221676],[115.038211,-34.221958],[115.038661,-34.222104],[115.038725,-34.221836],[115.038892,-34.221748],[115.03902,-34.221544],[115.039818,-34.221395],[115.040152,-34.221534],[115.041954,-34.222798],[115.042504,-34.223333],[115.044704,-34.223844],[115.045905,-34.224233],[115.048248,-34.224763],[115.051593,-34.225643],[115.052071,-34.225733],[115.054256,-34.22582],[115.054371,-34.225741],[115.054503,-34.225208],[115.055047,-34.224425],[115.05628,-34.224342],[115.057594,-34.223791],[115.059221,-34.223628],[115.059505,-34.223445],[115.059643,-34.223255],[115.059718,-34.222941],[115.059661,-34.222558],[115.059793,-34.222431],[115.061235,-34.222519],[115.061882,-34.222303],[115.062288,-34.222425],[115.062842,-34.222395],[115.063382,-34.222569],[115.064499,-34.222589],[115.065869,-34.222726],[115.067104,-34.222393],[115.067197,-34.222243],[115.06723,-34.221722],[115.06714,-34.220603],[115.067238,-34.219986],[115.067178,-34.214268],[115.06726,-34.213619],[115.067166,-34.213517],[115.066991,-34.213489],[115.064732,-34.213447],[115.064365,-34.213283],[115.063882,-34.212895],[115.063482,-34.212369],[115.063419,-34.212159],[115.063521,-34.211692],[115.064379,-34.211035],[115.064436,-34.210922],[115.0643,-34.210359],[115.064042,-34.209945],[115.063867,-34.20913],[115.063327,-34.208415],[115.06327,-34.207497],[115.0641,-34.206571],[115.064902,-34.206286],[115.065269,-34.206275],[115.065723,-34.206108],[115.066178,-34.206098],[115.066723,-34.205852],[115.067554,-34.205779],[115.067894,-34.205661],[115.067986,-34.205216],[115.068692,-34.20485],[115.068492,-34.204583],[115.068831,-34.204325],[115.069094,-34.203862],[115.069912,-34.203653],[115.070017,-34.203481],[115.070016,-34.203193],[115.070137,-34.203029],[115.071645,-34.202042],[115.072067,-34.201579],[115.073266,-34.20083],[115.07392,-34.200107],[115.074202,-34.199333],[115.073774,-34.198769],[115.073941,-34.198139],[115.074312,-34.197962],[115.074674,-34.197454],[115.074604,-34.19675],[115.074796,-34.196461],[115.074722,-34.196188],[115.074868,-34.195356],[115.075075,-34.195122],[115.075473,-34.194863],[115.075923,-34.194151],[115.075986,-34.19391],[115.07578,-34.193529],[115.076121,-34.192673],[115.075736,-34.19237],[115.075705,-34.191948],[115.075311,-34.191416],[115.075084,-34.190384],[115.075087,-34.189988],[115.075175,-34.189706],[115.075317,-34.189551],[115.075951,-34.189145],[115.076328,-34.189097],[115.076613,-34.188719],[115.076312,-34.188762],[115.076103,-34.18866],[115.075852,-34.188681],[115.075529,-34.188447],[115.075224,-34.188375],[115.074323,-34.187564],[115.073867,-34.186938],[115.073802,-34.186568],[115.073942,-34.186287],[115.073809,-34.186058],[115.073522,-34.185863],[115.073439,-34.18572],[115.07346,-34.185556],[115.073751,-34.185194],[115.073797,-34.18499],[115.073707,-34.184923],[115.073768,-34.184747],[115.07361,-34.18394],[115.073017,-34.183569],[115.072726,-34.183536],[115.072687,-34.183006],[115.072548,-34.18285],[115.072262,-34.182807],[115.072113,-34.182693],[115.071774,-34.182633],[115.071685,-34.182686],[115.071569,-34.182432],[115.071298,-34.182308],[115.071211,-34.181911],[115.071296,-34.181514],[115.071163,-34.181369],[115.071152,-34.181183],[115.070918,-34.180993],[115.070627,-34.181032],[115.07039,-34.180932],[115.070242,-34.180603],[115.070265,-34.1803],[115.070106,-34.18019],[115.070003,-34.179974],[115.070086,-34.179687],[115.06992,-34.179304],[115.069266,-34.178676],[115.068487,-34.178137],[115.068133,-34.178332],[115.067823,-34.177922],[115.067718,-34.177477],[115.066767,-34.177096],[115.067154,-34.176143],[115.067193,-34.175284],[115.066721,-34.174641],[115.066316,-34.173899],[115.066329,-34.172884],[115.067105,-34.172446],[115.067731,-34.171775],[115.068252,-34.170831],[115.068353,-34.170055],[115.069396,-34.167932],[115.070164,-34.167787],[115.070896,-34.167525],[115.07213,-34.167251],[115.072184,-34.167185],[115.071869,-34.166391],[115.070865,-34.1646],[115.070841,-34.163838],[115.070711,-34.163272],[115.070366,-34.162386],[115.069847,-34.160532],[115.06885,-34.159703],[115.067818,-34.159067],[115.067205,-34.158468],[115.066415,-34.157032],[115.065063,-34.155294],[115.064801,-34.153991],[115.064048,-34.15259],[115.063989,-34.15227],[115.063788,-34.151895],[115.06355,-34.151767],[115.062963,-34.151642],[115.062206,-34.151246],[115.061402,-34.151029],[115.060916,-34.150812],[115.060641,-34.150596],[115.060503,-34.150377],[115.06049,-34.14987],[115.060415,-34.149756],[115.061697,-34.149601],[115.061977,-34.14944],[115.062334,-34.149065],[115.06294,-34.148189],[115.063177,-34.147482],[115.063374,-34.146392],[115.064084,-34.145356],[115.064258,-34.144679],[115.064219,-34.144356],[115.06406,-34.143781],[115.063644,-34.143283],[115.063578,-34.142992],[115.063616,-34.142486],[115.064246,-34.139701],[115.064168,-34.139233],[115.064015,-34.138906],[115.063443,-34.138216],[115.061837,-34.137788],[115.05989,-34.136749],[115.059367,-34.136107],[115.057737,-34.134593],[115.057076,-34.133491],[115.055736,-34.132388],[115.055679,-34.132137],[115.055886,-34.131505],[115.055568,-34.130674],[115.054895,-34.12968],[115.054595,-34.129457],[115.054201,-34.128916],[115.053464,-34.128285],[115.05155,-34.126135],[115.050142,-34.124903],[115.049447,-34.124394],[115.048654,-34.123192],[115.048675,-34.123036],[115.04901,-34.122638],[115.050056,-34.121764],[115.049152,-34.120934],[115.048226,-34.119817],[115.047785,-34.118297],[115.046277,-34.114777],[115.046137,-34.114139],[115.046214,-34.112464],[115.046357,-34.112048],[115.047891,-34.110038],[115.048055,-34.108463],[115.047808,-34.108044],[115.047791,-34.107855],[115.047924,-34.10763],[115.048265,-34.107331],[115.048325,-34.106643],[115.047592,-34.106405],[115.046925,-34.105962],[115.046153,-34.105584],[115.045617,-34.105468],[115.044951,-34.105197],[115.043892,-34.104672],[115.043185,-34.104213],[115.042336,-34.103962],[115.04095,-34.103729],[115.04009,-34.103325],[115.03979,-34.103085],[115.038898,-34.102712],[115.037007,-34.101258],[115.035736,-34.100494],[115.035374,-34.100039],[115.035091,-34.099269],[115.03446,-34.098308],[115.034071,-34.097426],[115.03334,-34.096876],[115.033583,-34.095793],[115.033121,-34.095628],[115.03272,-34.095276],[115.032259,-34.09475],[115.032135,-34.094457],[115.031522,-34.093964],[115.030486,-34.092666],[115.030071,-34.092319],[115.029201,-34.091861],[115.028775,-34.091438],[115.028306,-34.091159],[115.027744,-34.091012],[115.027161,-34.091196],[115.026471,-34.09125],[115.025832,-34.091501],[115.025115,-34.091619],[115.024776,-34.091583],[115.024038,-34.091955],[115.022641,-34.092235],[115.022067,-34.092421],[115.021377,-34.092878],[115.020559,-34.092859],[115.019361,-34.0924],[115.018421,-34.092238],[115.017114,-34.092627],[115.016045,-34.092756],[115.015613,-34.09266],[115.015587,-34.091803],[115.015824,-34.091387],[115.015597,-34.091009],[115.015579,-34.090539],[115.015656,-34.083897],[115.015897,-34.083645],[115.016125,-34.083541],[115.01757,-34.083404],[115.017611,-34.08303],[115.017224,-34.082811],[115.017154,-34.082602],[115.017595,-34.083014],[115.017654,-34.083202],[115.017589,-34.08342],[115.01614,-34.083529],[115.015666,-34.083884],[115.015616,-34.091011],[115.015851,-34.091439],[115.015621,-34.091821],[115.015587,-34.092659],[115.014649,-34.092872],[115.014275,-34.093074],[115.013383,-34.09333],[115.011725,-34.093493],[115.009244,-34.093506],[115.007696,-34.093736],[115.007326,-34.093942],[115.006859,-34.094706],[115.006317,-34.095076],[115.004544,-34.09548],[115.003401,-34.095537],[115.002237,-34.095801],[115.001596,-34.095753],[115.001266,-34.095895],[115.000998,-34.095921],[115.000081,-34.095909],[114.999489,-34.095745],[114.998857,-34.095823],[114.997708,-34.095681],[114.997142,-34.097065],[114.996853,-34.097335],[114.996443,-34.097474],[114.996219,-34.097419],[114.995788,-34.096845],[114.995529,-34.096666],[114.995151,-34.096564],[114.994672,-34.096595],[114.99438,-34.096513],[114.994007,-34.096565],[114.993911,-34.096479],[114.99402,-34.095657],[114.994441,-34.094952],[114.994458,-34.094797],[114.994795,-34.094602],[114.995023,-34.094565],[114.995058,-34.093928],[114.995198,-34.09375],[114.995104,-34.093461],[114.995315,-34.093346],[114.995621,-34.092851],[114.995628,-34.09247],[114.996156,-34.092446],[114.99647,-34.092103],[114.996791,-34.091966],[114.9972,-34.09139],[114.998415,-34.090702],[114.998548,-34.09067],[114.999104,-34.091066],[114.999802,-34.090573],[115.000678,-34.090186],[115.001926,-34.089392],[115.00257,-34.088581],[115.003044,-34.087575],[115.003281,-34.087324],[115.004489,-34.086477],[115.004983,-34.085302],[115.005852,-34.08469],[115.00638,-34.083621],[115.007568,-34.082187],[115.008213,-34.08166],[115.008705,-34.080848],[115.008481,-34.080777],[115.008042,-34.080868],[115.007623,-34.080804],[115.007067,-34.080964],[115.006887,-34.080942],[115.0067,-34.080737],[115.006495,-34.080203],[115.005712,-34.079884],[115.005386,-34.079375],[115.005136,-34.079259],[115.005179,-34.079148],[115.004853,-34.078627],[115.004548,-34.078364],[115.004482,-34.078174],[115.004529,-34.078019],[115.004322,-34.077733],[115.004491,-34.077211],[115.004465,-34.076959],[115.004106,-34.076475],[115.004152,-34.076337],[115.004481,-34.07603],[115.004372,-34.075709],[115.004553,-34.075343],[115.004491,-34.075162],[115.004649,-34.074706],[115.004492,-34.074631],[115.004303,-34.074281],[115.004361,-34.074108],[115.00454,-34.07409],[115.004697,-34.07394],[115.004624,-34.073716],[115.004718,-34.073484],[115.004457,-34.073134],[115.004524,-34.07288],[115.004406,-34.0725],[115.003921,-34.072147],[115.00336,-34.072008],[115.003238,-34.071673],[115.002824,-34.071235],[115.002824,-34.071076],[115.002599,-34.070783],[115.002619,-34.07058],[115.002851,-34.070478],[115.002923,-34.070286],[115.002728,-34.069832],[115.002757,-34.069652],[115.002595,-34.069491],[115.002399,-34.069451],[115.002602,-34.069034],[115.002033,-34.068837],[115.002099,-34.068539],[115.001886,-34.068516],[115.001928,-34.06757],[115.001859,-34.067237],[115.001942,-34.067073],[115.001856,-34.066818],[115.002203,-34.06666],[115.002246,-34.066552],[115.002142,-34.066323],[115.001754,-34.06613],[115.001784,-34.065774],[115.001693,-34.065605],[115.001989,-34.065318],[115.001953,-34.065175],[115.002142,-34.06497],[115.002148,-34.064836],[115.001906,-34.064678],[115.001575,-34.06467],[115.001297,-34.064447],[115.000904,-34.06441],[115.000993,-34.063565],[115.000613,-34.063213],[115.000648,-34.06292],[115.000447,-34.062896],[115.000432,-34.062804],[114.999722,-34.062423],[114.999775,-34.061879],[115.000245,-34.061396],[115.000285,-34.061143],[115.000396,-34.061004],[115.000664,-34.060784],[115.000842,-34.060709],[115.001015,-34.060731],[115.001286,-34.060494],[115.001549,-34.060387],[115.001603,-34.060247],[115.001808,-34.060207],[115.001987,-34.060332],[115.002117,-34.06012],[115.002356,-34.060105],[115.003176,-34.059559],[115.003446,-34.058937],[115.003836,-34.058479],[115.003482,-34.057993],[115.003019,-34.05784],[115.002901,-34.057494],[115.002643,-34.057309],[115.002438,-34.05698],[115.001739,-34.056423],[115.001451,-34.05607],[115.001372,-34.055894],[115.0014,-34.055622],[115.001209,-34.055243],[115.001102,-34.054781],[115.001134,-34.054483],[115.000427,-34.054169],[115.000501,-34.053963],[115.000415,-34.053767],[115.000528,-34.053605],[115.000924,-34.053518],[115.001153,-34.053332],[115.001405,-34.053246],[115.00193,-34.052674],[115.002303,-34.051725],[115.002304,-34.050849],[115.002015,-34.050598],[115.001976,-34.050027],[115.001774,-34.049521],[115.002003,-34.048737],[115.002369,-34.04801],[115.002121,-34.047857],[115.001906,-34.047898],[115.001872,-34.04763],[115.001629,-34.047574],[115.001473,-34.047169],[115.001113,-34.046894],[115.001367,-34.046323],[115.001275,-34.045986],[115.001358,-34.045754],[115.001317,-34.045565],[115.001582,-34.045205],[115.002058,-34.043973],[115.000779,-34.041394],[115.000443,-34.041112],[115.000219,-34.04066],[115.000129,-34.040184],[114.999882,-34.039912],[114.999554,-34.039755],[114.999656,-34.039333],[114.999553,-34.039408],[114.999223,-34.039111],[114.999328,-34.038968],[114.999287,-34.038849],[114.999571,-34.038595],[114.999421,-34.038359],[114.99943,-34.038233],[114.999593,-34.038021],[115.00017,-34.037765],[115.000303,-34.037525],[115.00062,-34.037267],[115.000673,-34.036987],[115.000839,-34.036855],[115.001092,-34.035977],[115.000896,-34.035276],[115.001573,-34.034496],[115.001702,-34.034019],[115.002053,-34.033625],[115.002098,-34.033462],[115.00205,-34.033047],[115.001693,-34.031998],[115.001361,-34.031338],[115.000993,-34.029971],[115.001008,-34.029662],[115.000828,-34.028729],[115.000856,-34.027685],[115.000732,-34.027212],[115.000844,-34.02659],[115.000822,-34.025883],[115.000418,-34.023903],[115.000159,-34.021973],[115.000422,-34.020804],[115.000959,-34.017385],[115.001039,-34.0155],[115.000928,-34.014406],[115.00043,-34.012544],[114.999466,-34.010491],[114.998528,-34.008924],[114.997706,-34.00728],[114.997337,-34.006183],[114.996953,-34.005452],[114.996918,-34.005143],[114.996767,-34.00493],[114.996733,-34.004712],[114.996549,-34.004495],[114.996589,-34.004096],[114.997273,-34.003045],[114.997414,-34.002932],[114.997729,-34.002853],[114.997762,-34.002727],[114.996999,-34.002441],[114.996596,-34.002197],[114.995691,-34.00129],[114.994898,-34.000738],[114.994725,-34.00048],[114.994812,-34.00027],[114.995308,-34.00019],[114.995727,-33.999837],[114.995907,-33.999375],[114.995727,-33.998765],[114.995371,-33.998131],[114.995254,-33.998072],[114.994921,-33.998079],[114.994934,-33.997605],[114.994459,-33.997121],[114.994222,-33.997049],[114.993791,-33.996458],[114.993734,-33.996088],[114.99338,-33.995315],[114.992818,-33.993468],[114.991873,-33.993434],[114.991492,-33.993602],[114.991391,-33.993733],[114.99119,-33.993742],[114.991185,-33.993889],[114.990559,-33.993166],[114.989787,-33.992781],[114.989882,-33.99229],[114.990202,-33.991649],[114.990554,-33.991265],[114.990927,-33.991151],[114.990828,-33.990963],[114.991045,-33.99073],[114.991053,-33.9906],[114.990952,-33.990549],[114.991151,-33.990245],[114.991374,-33.989556],[114.991499,-33.989577],[114.991582,-33.989278],[114.991301,-33.988032],[114.991352,-33.987797],[114.990865,-33.987046],[114.990618,-33.986137],[114.990472,-33.984732],[114.989825,-33.983012],[114.989826,-33.982687],[114.990104,-33.981989],[114.990366,-33.98071],[114.990799,-33.98002],[114.991022,-33.979902],[114.992088,-33.979852],[114.992344,-33.979725],[114.992378,-33.979624],[114.991938,-33.979398],[114.990954,-33.978401],[114.990771,-33.978108],[114.989951,-33.977923],[114.989823,-33.978307],[114.989568,-33.978468],[114.989151,-33.97722],[114.988949,-33.977158],[114.988837,-33.977009],[114.986979,-33.977111],[114.986103,-33.976989],[114.985856,-33.976865],[114.985875,-33.976448],[114.986333,-33.97596],[114.98678,-33.97463],[114.986959,-33.973337],[114.986791,-33.972588],[114.986953,-33.972068],[114.987198,-33.971667],[114.987094,-33.971568],[114.987121,-33.971451],[114.986231,-33.970606],[114.984876,-33.969466],[114.984761,-33.969209],[114.984082,-33.968854],[114.984015,-33.968749],[114.984042,-33.968616],[114.984266,-33.96857],[114.984462,-33.968428],[114.984477,-33.968295],[114.983954,-33.967679],[114.983971,-33.967344],[114.983738,-33.967183],[114.983614,-33.966956],[114.983622,-33.966769],[114.983475,-33.966659],[114.983452,-33.966486],[114.983297,-33.966381],[114.983326,-33.966105],[114.98351,-33.965893],[114.983648,-33.965077],[114.98352,-33.964664],[114.983602,-33.964447],[114.983507,-33.964229],[114.983381,-33.964145],[114.983576,-33.963685],[114.983124,-33.963544],[114.982639,-33.963096],[114.982196,-33.962475],[114.982367,-33.962163],[114.982544,-33.962095],[114.982754,-33.96178],[114.983138,-33.961667],[114.983304,-33.961513],[114.983631,-33.961576],[114.983294,-33.961281],[114.983311,-33.96116],[114.984455,-33.960367],[114.985562,-33.959715],[114.986736,-33.958604],[114.987509,-33.958207],[114.988229,-33.958016],[114.989083,-33.957437],[114.989649,-33.956704],[114.989704,-33.955828],[114.991219,-33.955285],[114.991568,-33.955079],[114.992466,-33.9539],[114.9926,-33.953338],[114.992513,-33.952714],[114.992646,-33.952262],[114.992414,-33.951884],[114.992534,-33.951762],[114.992534,-33.951558],[114.99281,-33.951304],[114.992741,-33.951013],[114.993019,-33.950183],[114.993017,-33.949731],[114.993104,-33.949567],[114.992964,-33.949009],[114.993126,-33.948887],[114.993207,-33.948615],[114.99306,-33.947465],[114.992912,-33.946944],[114.992984,-33.946465],[114.992856,-33.945334],[114.992809,-33.945115],[114.99252,-33.944804],[114.992502,-33.944618],[114.992916,-33.943993],[114.99322,-33.943956],[114.993265,-33.944054],[114.993356,-33.944052],[114.993641,-33.943749],[114.993744,-33.944079],[114.993953,-33.943931],[114.994013,-33.944247],[114.994217,-33.944008],[114.994431,-33.944626],[114.994573,-33.944498],[114.994702,-33.944181],[114.994251,-33.943336],[114.994353,-33.943243],[114.994628,-33.942447],[114.994513,-33.942019],[114.994373,-33.941914],[114.99424,-33.941633],[114.994327,-33.941303],[114.994641,-33.940901],[114.995435,-33.940564],[114.995715,-33.940236],[114.995779,-33.940005],[114.995724,-33.939901],[114.995839,-33.939724],[114.99592,-33.939228],[114.996106,-33.939003],[114.995967,-33.938737],[114.996034,-33.938559],[114.996865,-33.938273],[114.997168,-33.938271],[114.997368,-33.938378],[114.997722,-33.938433],[114.997972,-33.93825],[114.998091,-33.93801],[114.997894,-33.9377],[114.997561,-33.937488],[114.997229,-33.937135],[114.997154,-33.936763],[114.997269,-33.936656],[114.997582,-33.936572],[114.997714,-33.936327],[114.99751,-33.936195],[114.997553,-33.936095],[114.997418,-33.935989],[114.997286,-33.935466],[114.99714,-33.935372],[114.997281,-33.935185],[114.997571,-33.935318],[114.997873,-33.935325],[114.998216,-33.934927],[114.99822,-33.934742],[114.998024,-33.934526],[114.997638,-33.934303],[114.996825,-33.933963],[114.996805,-33.933887],[114.997092,-33.933568],[114.996955,-33.933432],[114.996707,-33.93277],[114.997312,-33.932491],[114.997581,-33.932002],[114.997102,-33.931853],[114.997019,-33.93169],[114.996641,-33.93158],[114.996615,-33.931113],[114.995979,-33.930848],[114.995519,-33.930466],[114.995548,-33.93031],[114.995753,-33.930208],[114.995891,-33.930302],[114.995985,-33.930248],[114.996317,-33.930276],[114.996544,-33.930176],[114.996793,-33.930234],[114.996859,-33.930059],[114.997389,-33.929894],[114.99731,-33.929782],[114.997461,-33.929613],[114.997298,-33.929294],[114.997315,-33.92914],[114.997443,-33.92901],[114.997403,-33.928834],[114.997094,-33.928573],[114.996422,-33.928341],[114.996702,-33.927995],[114.996716,-33.927591],[114.996438,-33.927432],[114.996214,-33.927129],[114.996528,-33.926537],[114.996664,-33.926129],[114.996615,-33.92598],[114.996716,-33.925867],[114.997294,-33.925491],[114.997726,-33.925439],[114.998008,-33.925304],[114.998152,-33.925136],[114.998576,-33.924963],[114.998579,-33.924107],[114.998485,-33.923674],[114.998524,-33.920751],[114.999198,-33.920515],[114.999617,-33.920262],[115.000166,-33.920257],[115.000298,-33.920199],[115.000498,-33.91987],[115.000856,-33.920003],[115.001036,-33.919982],[115.001853,-33.919771],[115.002482,-33.919357],[115.003417,-33.919252],[115.004331,-33.918663],[115.004424,-33.918378],[115.004467,-33.916398],[115.00442,-33.915979],[115.004294,-33.915855],[115.003833,-33.915675],[115.00244,-33.915427],[115.001688,-33.915141],[115.000854,-33.914691],[115.000566,-33.914176],[115.000434,-33.913748],[114.9999,-33.912953],[114.999083,-33.912564],[114.998347,-33.91193],[114.997858,-33.911624],[114.99661,-33.911089],[114.996523,-33.910915],[114.996587,-33.910698],[114.9965,-33.910408],[114.995798,-33.91039],[114.99549,-33.910524],[114.994887,-33.910986],[114.994688,-33.911038],[114.993852,-33.910866],[114.99255,-33.910465],[114.992022,-33.910455],[114.9916,-33.910157],[114.991666,-33.909903],[114.991471,-33.909315],[114.991495,-33.908847],[114.990837,-33.908823],[114.990012,-33.908916],[114.989764,-33.908847],[114.989437,-33.908634],[114.988683,-33.908519],[114.988454,-33.90815],[114.988452,-33.907827],[114.988737,-33.907125],[114.988722,-33.906529],[114.988963,-33.906118],[114.988647,-33.905255],[114.988783,-33.904758],[114.988493,-33.90403],[114.988428,-33.903533],[114.98812,-33.903033],[114.988084,-33.90248],[114.987916,-33.902183],[114.987951,-33.901754],[114.98784,-33.901034],[114.987606,-33.900142],[114.987208,-33.899394],[114.986941,-33.899214],[114.986714,-33.898725],[114.98671,-33.898445],[114.987074,-33.898306],[114.987091,-33.898156],[114.987396,-33.897924],[114.987547,-33.897648],[114.987495,-33.897373],[114.987306,-33.897141],[114.987182,-33.896727],[114.986736,-33.896167],[114.986638,-33.895805],[114.98673,-33.895412],[114.986401,-33.895052],[114.986844,-33.89411],[114.98673,-33.893767],[114.986994,-33.89349],[114.986707,-33.892059],[114.98675,-33.891758],[114.987197,-33.890911],[114.987232,-33.890638],[114.986559,-33.889384],[114.985964,-33.889068],[114.98577,-33.888317],[114.985413,-33.887504],[114.985094,-33.88725],[114.985121,-33.886978],[114.985281,-33.886715],[114.985188,-33.886457],[114.985424,-33.885968],[114.985148,-33.885653],[114.985049,-33.884259],[114.985177,-33.883601],[114.984836,-33.882928],[114.984656,-33.880583],[114.984326,-33.87978],[114.984029,-33.879329],[114.983952,-33.878986],[114.983776,-33.87873],[114.98243,-33.877843],[114.981585,-33.877548],[114.981207,-33.876975],[114.981452,-33.876449],[114.98143,-33.876259],[114.981694,-33.875118],[114.981592,-33.874616],[114.981679,-33.873959],[114.981581,-33.873142],[114.981241,-33.872898],[114.981079,-33.872641],[114.980682,-33.872313],[114.980588,-33.87194],[114.980397,-33.871613],[114.980234,-33.871404],[114.979745,-33.871057],[114.979522,-33.870729],[114.979431,-33.869014],[114.979289,-33.868758],[114.979127,-33.868721],[114.978902,-33.868374],[114.978903,-33.867628],[114.978657,-33.867438],[114.978379,-33.866736],[114.978294,-33.865914],[114.979064,-33.865577],[114.979581,-33.865598],[114.979734,-33.865702],[114.980132,-33.865793],[114.980391,-33.866021],[114.98087,-33.866201],[114.981703,-33.866008],[114.981938,-33.865774],[114.982465,-33.865887],[114.982848,-33.865839],[114.983559,-33.865384],[114.983959,-33.865281],[114.984181,-33.865311],[114.984705,-33.865685],[114.985183,-33.865439],[114.986444,-33.865127],[114.986475,-33.865058],[114.986155,-33.864989],[114.986163,-33.86487],[114.986963,-33.864495],[114.987478,-33.864069],[114.987688,-33.864036],[114.98788,-33.864139],[114.988204,-33.864084],[114.988325,-33.863693],[114.988676,-33.863345],[114.988899,-33.862893],[114.989122,-33.86235],[114.98906,-33.862253],[114.989107,-33.862221],[114.989095,-33.862287],[114.989123,-33.862188],[114.989354,-33.862177],[114.989543,-33.861524],[114.989454,-33.861017],[114.989037,-33.859818],[114.988418,-33.858696],[114.988165,-33.858363],[114.987827,-33.858196],[114.987363,-33.858144],[114.987092,-33.858282],[114.987,-33.858125],[114.986416,-33.857984],[114.986469,-33.857864],[114.986198,-33.857602],[114.986239,-33.857256],[114.986354,-33.856826],[114.986553,-33.85686],[114.986668,-33.85666],[114.986937,-33.856509],[114.987145,-33.856593],[114.987396,-33.856493],[114.987575,-33.856348],[114.9876,-33.856163],[114.988256,-33.855741],[114.988291,-33.855297],[114.98821,-33.855046],[114.988295,-33.854624],[114.988502,-33.854416],[114.988744,-33.853956],[114.98869,-33.853825],[114.989053,-33.853448],[114.989,-33.853307],[114.989102,-33.853158],[114.989401,-33.852982],[114.989676,-33.852536],[114.990122,-33.85262],[114.990291,-33.852456],[114.990523,-33.852392],[114.990816,-33.851879],[114.990986,-33.851891],[114.991243,-33.85166],[114.991238,-33.851546],[114.991386,-33.851374],[114.991827,-33.850995],[114.991952,-33.850772],[114.99229,-33.850616],[114.992407,-33.850455],[114.992869,-33.850138],[114.99306,-33.849671],[114.993334,-33.849548],[114.993629,-33.849165],[114.994152,-33.848718],[114.994249,-33.848424],[114.994211,-33.848129],[114.994311,-33.847877],[114.994329,-33.847445],[114.994553,-33.847193],[114.994602,-33.847019],[114.994859,-33.846855],[114.995166,-33.846417],[114.995154,-33.845995],[114.995072,-33.845829],[114.995574,-33.844549],[114.995334,-33.843888],[114.995444,-33.843256],[114.995339,-33.842712],[114.995346,-33.842542],[114.995451,-33.842434],[114.995435,-33.842147],[114.995389,-33.841985],[114.995171,-33.841836],[114.995296,-33.84072],[114.995113,-33.840334],[114.994986,-33.839635],[114.995235,-33.839317],[114.995322,-33.838843],[114.995567,-33.838441],[114.995379,-33.837999],[114.995507,-33.83766],[114.99551,-33.837183],[114.995167,-33.836771],[114.995291,-33.836371],[114.995138,-33.835984],[114.995435,-33.835546],[114.995676,-33.834688],[114.99596,-33.834132],[114.996198,-33.834257],[114.996891,-33.834377],[114.997325,-33.834584],[114.997857,-33.834717],[114.998071,-33.834967],[114.998116,-33.835219],[114.998249,-33.835327],[115.000359,-33.835325],[115.00102,-33.835503],[115.005012,-33.835464],[115.005321,-33.835551],[115.005407,-33.835725],[115.005298,-33.836281],[115.005299,-33.837554],[115.005527,-33.837967],[115.005459,-33.838161],[115.005522,-33.840398],[115.005453,-33.841979],[115.005474,-33.842912],[115.005547,-33.843027],[115.007062,-33.843064],[115.007445,-33.843143],[115.011971,-33.843162],[115.01215,-33.843222],[115.012799,-33.843841],[115.013491,-33.844175],[115.013975,-33.844294],[115.014877,-33.844128],[115.015448,-33.844225],[115.016216,-33.844123],[115.016681,-33.843941],[115.016984,-33.8437],[115.01775,-33.843589],[115.018387,-33.843193],[115.01941,-33.843105],[115.020774,-33.843187],[115.02131,-33.843122],[115.021649,-33.843174],[115.022111,-33.843363],[115.022959,-33.843275],[115.023501,-33.843488],[115.024033,-33.843597],[115.024521,-33.843875],[115.024918,-33.843705],[115.025225,-33.843664],[115.025768,-33.843753],[115.026396,-33.843696],[115.027345,-33.843168],[115.027823,-33.843141],[115.028169,-33.843221],[115.028281,-33.84306],[115.028654,-33.842974],[115.028273,-33.842113],[115.028399,-33.841994],[115.028611,-33.841954],[115.028781,-33.841483],[115.029206,-33.841053],[115.029579,-33.840827],[115.029805,-33.840465],[115.030334,-33.84002],[115.03072,-33.839573],[115.031153,-33.839325],[115.031493,-33.839361],[115.032207,-33.839292],[115.032798,-33.839532],[115.033112,-33.839304],[115.033611,-33.839166],[115.033791,-33.839351],[115.034146,-33.839446],[115.036833,-33.840014],[115.038524,-33.840265],[115.038613,-33.840344],[115.038624,-33.841352],[115.038869,-33.841556],[115.039098,-33.841472],[115.039535,-33.841559],[115.040111,-33.84146],[115.040593,-33.841505],[115.041366,-33.841447],[115.042516,-33.841548],[115.043713,-33.841462],[115.044895,-33.841541],[115.045056,-33.841438],[115.045098,-33.840622],[115.045226,-33.840467],[115.045383,-33.840416],[115.050618,-33.840393],[115.053536,-33.84046],[115.053619,-33.840324],[115.053596,-33.837234],[115.053456,-33.837076],[115.052514,-33.837011],[115.052328,-33.836868],[115.052327,-33.833378],[115.052583,-33.833231],[115.052851,-33.833248],[115.055559,-33.834387],[115.05588,-33.834482],[115.056048,-33.834427],[115.056375,-33.834129],[115.056443,-33.833642],[115.056083,-33.833128],[115.056109,-33.832762],[115.056224,-33.83249],[115.056846,-33.831775],[115.057154,-33.831862],[115.057275,-33.831693],[115.057479,-33.831718],[115.057619,-33.831604],[115.058047,-33.831755],[115.058276,-33.831735],[115.058401,-33.831283],[115.05832,-33.830808],[115.058572,-33.830584]]}},{"type":"Feature","properties":{"year":2025,"color":"#2F6F6B"},"geometry":{"type":"LineString","coordinates":[[115.027207,-34.221453],[115.027629,-34.221143],[115.027887,-34.221161],[115.028442,-34.220914],[115.028974,-34.22087],[115.029383,-34.220754],[115.030507,-34.220038],[115.030739,-34.219989],[115.031089,-34.220047],[115.031359,-34.219921],[115.03175,-34.220221],[115.03181,-34.220511],[115.033159,-34.221037],[115.033353,-34.221627],[115.033571,-34.221788],[115.035592,-34.221736],[115.036342,-34.221794],[115.036358,-34.221725],[115.036176,-34.221621],[115.036146,-34.221515],[115.036518,-34.221371],[115.036565,-34.22129],[115.036485,-34.221077],[115.036696,-34.221015],[115.037547,-34.221492],[115.037931,-34.221558],[115.038099,-34.221719],[115.038184,-34.221979],[115.038628,-34.222129],[115.038714,-34.222076],[115.038731,-34.221852],[115.038896,-34.22177],[115.039004,-34.221559],[115.039857,-34.221424],[115.041988,-34.22286],[115.04249,-34.223351],[115.044678,-34.223855],[115.045187,-34.224053],[115.047147,-34.22457],[115.048217,-34.224771],[115.051723,-34.225699],[115.054257,-34.225825],[115.054353,-34.225765],[115.054534,-34.225093],[115.055052,-34.224422],[115.05611,-34.22441],[115.057713,-34.223778],[115.059146,-34.223676],[115.059599,-34.223396],[115.059743,-34.222949],[115.059663,-34.222564],[115.059826,-34.222418],[115.060427,-34.222511],[115.061247,-34.222524],[115.061827,-34.222307],[115.062202,-34.22242],[115.062817,-34.222392],[115.063363,-34.222578],[115.065814,-34.222749],[115.067096,-34.222422],[115.067195,-34.222284],[115.067233,-34.221886],[115.067144,-34.220735],[115.067244,-34.219993],[115.0673,-34.217671],[115.067199,-34.216173],[115.067254,-34.213632],[115.067052,-34.213506],[115.064757,-34.213519],[115.064334,-34.21332],[115.0637,-34.212709],[115.063465,-34.212271],[115.063498,-34.211758],[115.064391,-34.211059],[115.064448,-34.210935],[115.064314,-34.210362],[115.064033,-34.209898],[115.063874,-34.209132],[115.063603,-34.208744],[115.063305,-34.208528],[115.063372,-34.207786],[115.063281,-34.20754],[115.063663,-34.207027],[115.064153,-34.206569],[115.065671,-34.206143],[115.066209,-34.206141],[115.066745,-34.205854],[115.067474,-34.205794],[115.067869,-34.205686],[115.067984,-34.205239],[115.068719,-34.204829],[115.068489,-34.204669],[115.068491,-34.204593],[115.068811,-34.204372],[115.069108,-34.203874],[115.069894,-34.203695],[115.070142,-34.203025],[115.070778,-34.202675],[115.0716,-34.20209],[115.072043,-34.201608],[115.073214,-34.200887],[115.073681,-34.200482],[115.074231,-34.199478],[115.074188,-34.199265],[115.073762,-34.198796],[115.073957,-34.198119],[115.074336,-34.197946],[115.074669,-34.197475],[115.074602,-34.196725],[115.074787,-34.196546],[115.074731,-34.196168],[115.074878,-34.195369],[115.075083,-34.195124],[115.075454,-34.19489],[115.075932,-34.194145],[115.075992,-34.193921],[115.075803,-34.193621],[115.075811,-34.193421],[115.076122,-34.192718],[115.075734,-34.192383],[115.075719,-34.191984],[115.075309,-34.191398],[115.0751,-34.19057],[115.075112,-34.189882],[115.075299,-34.18958],[115.07572,-34.189268],[115.076338,-34.189107],[115.0766,-34.18872],[115.076265,-34.188752],[115.076106,-34.188657],[115.075858,-34.188697],[115.075579,-34.188479],[115.075084,-34.188303],[115.075043,-34.188176],[115.074606,-34.18793],[115.074162,-34.187189],[115.074033,-34.187071],[115.073755,-34.186998],[115.073456,-34.186585],[115.07317,-34.185914],[115.073383,-34.185363],[115.073799,-34.185005],[115.073712,-34.184921],[115.073712,-34.184326],[115.073606,-34.183931],[115.073025,-34.18359],[115.072818,-34.183614],[115.072734,-34.183557],[115.072698,-34.183014],[115.072556,-34.182887],[115.072284,-34.182833],[115.072199,-34.182738],[115.071682,-34.182707],[115.071558,-34.182438],[115.071268,-34.1823],[115.071217,-34.181846],[115.071303,-34.181517],[115.07117,-34.181385],[115.071163,-34.181197],[115.070924,-34.181006],[115.070621,-34.181048],[115.070379,-34.180965],[115.070237,-34.180628],[115.070275,-34.180301],[115.070111,-34.180215],[115.069996,-34.179977],[115.070077,-34.179761],[115.069964,-34.179384],[115.068736,-34.178317],[115.068464,-34.178182],[115.068186,-34.178341],[115.06804,-34.178241],[115.067671,-34.177464],[115.066769,-34.177125],[115.067159,-34.176176],[115.067198,-34.175245],[115.066808,-34.174763],[115.066337,-34.173896],[115.0663,-34.17295],[115.066469,-34.172772],[115.066775,-34.172675],[115.067126,-34.172442],[115.067722,-34.171802],[115.068238,-34.17085],[115.068383,-34.170039],[115.069362,-34.167964],[115.0721,-34.167269],[115.072156,-34.167211],[115.072065,-34.166821],[115.070869,-34.164544],[115.070738,-34.163321],[115.070275,-34.162145],[115.069849,-34.160506],[115.068824,-34.159629],[115.067796,-34.159021],[115.067257,-34.158466],[115.066485,-34.157064],[115.065023,-34.155242],[115.064698,-34.153718],[115.064078,-34.152632],[115.063797,-34.151928],[115.06352,-34.151784],[115.062905,-34.151642],[115.062073,-34.151192],[115.061332,-34.151007],[115.060652,-34.150594],[115.060517,-34.150349],[115.060486,-34.149831],[115.061908,-34.149488],[115.06291,-34.148254],[115.063124,-34.147753],[115.063376,-34.146478],[115.06407,-34.145458],[115.064168,-34.1452],[115.064293,-34.144642],[115.064114,-34.143799],[115.063828,-34.143521],[115.063603,-34.143012],[115.063647,-34.14248],[115.06426,-34.139647],[115.064179,-34.139192],[115.06397,-34.138741],[115.063375,-34.138147],[115.061807,-34.13771],[115.059866,-34.136685],[115.059386,-34.136126],[115.057906,-34.134784],[115.057604,-34.134423],[115.057078,-34.133468],[115.056078,-34.132726],[115.055697,-34.132326],[115.055699,-34.132075],[115.0559,-34.131549],[115.055613,-34.130754],[115.054923,-34.129728],[115.054591,-34.129481],[115.054204,-34.128947],[115.053452,-34.128285],[115.051697,-34.126285],[115.050178,-34.124942],[115.049425,-34.124402],[115.048695,-34.12326],[115.048746,-34.123013],[115.050066,-34.121795],[115.048752,-34.12051],[115.048261,-34.119856],[115.047779,-34.118334],[115.04628,-34.114783],[115.046135,-34.114099],[115.046184,-34.112738],[115.046347,-34.112055],[115.047901,-34.110053],[115.048071,-34.108581],[115.047817,-34.107868],[115.047936,-34.107658],[115.048235,-34.107405],[115.048293,-34.107084],[115.048303,-34.107282],[115.048336,-34.10665],[115.047613,-34.106416],[115.046845,-34.105927],[115.046141,-34.1056],[115.045037,-34.105266],[115.043969,-34.104718],[115.043174,-34.104198],[115.042261,-34.103923],[115.041083,-34.103788],[115.040076,-34.103344],[115.039723,-34.103075],[115.038915,-34.102733],[115.036977,-34.101246],[115.035703,-34.100462],[115.035277,-34.099841],[115.035053,-34.099192],[115.034471,-34.098398],[115.034052,-34.097458],[115.033818,-34.097256],[115.033855,-34.097165],[115.03354,-34.097053],[115.03335,-34.096793],[115.03359,-34.095848],[115.033097,-34.095626],[115.032303,-34.094884],[115.032107,-34.094438],[115.031519,-34.093971],[115.031322,-34.09364],[115.030522,-34.092712],[115.030031,-34.0923],[115.029133,-34.091844],[115.02882,-34.091489],[115.028357,-34.091169],[115.028037,-34.091044],[115.027705,-34.091022],[115.027126,-34.091228],[115.026404,-34.091292],[115.02597,-34.091471],[115.025334,-34.091604],[115.024737,-34.091601],[115.024125,-34.091959],[115.02205,-34.092456],[115.021488,-34.092862],[115.021317,-34.092903],[115.020492,-34.092892],[115.019439,-34.092402],[115.018525,-34.092298],[115.018199,-34.092313],[115.017741,-34.092516],[115.017071,-34.092673],[115.016045,-34.092792],[115.015605,-34.092682],[115.015594,-34.091811],[115.015825,-34.091398],[115.015591,-34.09095],[115.015646,-34.083937],[115.015732,-34.083776],[115.016067,-34.083569],[115.017543,-34.083449],[115.017575,-34.08307],[115.017221,-34.082829],[115.017161,-34.082641],[115.017326,-34.082862],[115.017605,-34.083036],[115.01759,-34.083409],[115.016152,-34.083572],[115.015671,-34.083876],[115.015594,-34.090545],[115.015608,-34.09102],[115.015857,-34.091456],[115.01562,-34.091845],[115.015587,-34.092659],[115.014635,-34.092905],[115.014173,-34.093133],[115.013447,-34.093347],[115.011564,-34.093523],[115.00922,-34.093533],[115.007715,-34.093756],[115.007361,-34.09393],[115.006864,-34.094717],[115.006295,-34.0951],[115.004497,-34.095528],[115.00349,-34.095561],[115.002297,-34.095821],[115.001578,-34.095788],[115.000928,-34.095951],[115.000058,-34.09592],[114.99956,-34.095766],[114.998492,-34.095835],[114.997708,-34.095685],[114.997137,-34.097041],[114.996844,-34.097319],[114.996432,-34.097479],[114.99621,-34.097437],[114.995786,-34.096838],[114.995523,-34.096664],[114.99517,-34.096572],[114.994001,-34.096581],[114.9939,-34.096465],[114.994027,-34.095647],[114.994291,-34.095379],[114.994436,-34.094836],[114.994743,-34.094618],[114.994893,-34.09465],[114.995024,-34.094579],[114.995509,-34.093972],[114.995583,-34.093014],[114.995448,-34.092524],[114.996182,-34.092424],[114.996444,-34.092106],[114.99674,-34.092001],[114.997187,-34.091341],[114.998313,-34.090706],[114.998514,-34.090675],[114.998923,-34.091029],[114.999093,-34.091059],[114.999708,-34.090607],[115.000694,-34.090179],[115.001885,-34.089419],[115.002591,-34.088532],[115.003066,-34.087452],[115.004407,-34.086523],[115.004957,-34.085249],[115.005806,-34.084728],[115.006342,-34.083629],[115.007584,-34.08216],[115.008285,-34.081588],[115.008707,-34.080851],[115.008531,-34.080786],[115.007999,-34.080866],[115.007616,-34.080807],[115.006882,-34.080962],[115.006689,-34.08075],[115.006474,-34.080198],[115.005705,-34.07988],[115.00538,-34.079376],[115.005158,-34.079261],[115.005191,-34.079144],[115.005097,-34.079102],[115.004906,-34.078681],[115.004546,-34.078357],[115.004481,-34.078181],[115.004534,-34.077995],[115.004313,-34.077609],[115.004482,-34.07724],[115.004437,-34.076928],[115.004093,-34.076428],[115.004478,-34.07601],[115.004369,-34.075707],[115.004551,-34.075349],[115.004522,-34.074977],[115.004651,-34.074694],[115.004503,-34.074643],[115.004297,-34.074257],[115.004344,-34.074123],[115.004514,-34.074115],[115.004683,-34.073949],[115.004632,-34.073696],[115.004719,-34.073493],[115.004456,-34.073158],[115.004522,-34.072859],[115.004374,-34.072464],[115.003939,-34.072151],[115.003339,-34.071976],[115.003243,-34.071664],[115.002825,-34.071226],[115.002824,-34.071072],[115.002595,-34.070761],[115.002613,-34.070589],[115.002875,-34.070462],[115.002925,-34.070266],[115.002727,-34.069831],[115.002761,-34.069664],[115.0026,-34.069499],[115.002395,-34.069437],[115.002605,-34.068983],[115.002012,-34.06882],[115.002098,-34.068523],[115.001881,-34.06849],[115.001874,-34.067261],[115.001948,-34.06711],[115.001864,-34.066848],[115.002247,-34.066576],[115.002147,-34.066341],[115.001801,-34.066203],[115.001795,-34.065769],[115.001704,-34.065622],[115.001999,-34.065328],[115.001942,-34.065185],[115.002157,-34.064967],[115.002159,-34.064823],[115.001902,-34.064693],[115.001767,-34.064726],[115.001559,-34.06465],[115.001288,-34.064436],[115.000927,-34.064407],[115.001001,-34.064209],[115.001001,-34.063561],[115.000885,-34.063402],[115.000767,-34.063409],[115.000685,-34.063309],[115.000659,-34.062931],[115.000555,-34.062849],[115.000464,-34.062921],[115.00042,-34.062791],[114.999734,-34.062426],[114.999773,-34.061891],[115.000239,-34.061397],[115.000379,-34.061017],[115.000675,-34.060776],[115.000862,-34.060697],[115.001036,-34.06073],[115.001549,-34.060374],[115.001584,-34.06025],[115.001811,-34.060192],[115.001977,-34.060338],[115.002105,-34.060128],[115.002351,-34.060103],[115.002799,-34.059834],[115.002965,-34.059637],[115.003169,-34.059549],[115.003514,-34.058829],[115.003831,-34.058465],[115.003507,-34.058017],[115.003021,-34.057852],[115.00294,-34.057507],[115.002644,-34.057308],[115.002484,-34.057006],[115.001727,-34.056403],[115.001419,-34.056031],[115.001392,-34.055596],[115.001215,-34.055209],[115.001125,-34.05448],[115.000447,-34.054191],[115.000518,-34.053991],[115.000424,-34.05382],[115.000518,-34.053621],[115.000938,-34.053521],[115.0012,-34.053312],[115.001412,-34.053244],[115.001542,-34.053016],[115.001936,-34.052648],[115.0023,-34.051748],[115.002244,-34.051169],[115.002297,-34.05085],[115.002005,-34.050597],[115.001976,-34.050005],[115.001779,-34.049523],[115.00199,-34.048772],[115.002355,-34.048013],[115.00217,-34.047874],[115.001901,-34.047881],[115.00188,-34.047628],[115.001646,-34.047557],[115.001468,-34.047165],[115.001135,-34.0469],[115.001375,-34.046321],[115.001298,-34.045969],[115.001372,-34.045752],[115.001306,-34.045668],[115.001694,-34.044479],[115.001448,-34.043326],[115.000816,-34.041456],[115.000459,-34.041126],[115.000224,-34.040656],[115.000133,-34.040195],[114.999887,-34.039917],[114.999574,-34.039763],[114.999599,-34.039437],[114.999217,-34.0391],[114.999312,-34.038958],[114.999276,-34.038871],[114.999552,-34.038617],[114.999403,-34.038283],[114.999554,-34.038058],[114.999879,-34.0379],[115.000132,-34.037568],[115.000455,-34.037401],[115.000771,-34.036907],[115.000945,-34.03538],[115.000891,-34.035264],[115.001533,-34.034658],[115.001789,-34.034152],[115.001828,-34.033846],[115.002025,-34.033675],[115.002092,-34.03341],[115.001911,-34.032538],[115.001374,-34.031194],[115.001024,-34.029969],[115.001034,-34.0295],[115.000807,-34.028662],[115.000903,-34.028028],[115.0009,-34.02761],[115.000771,-34.027086],[115.000868,-34.026333],[115.000193,-34.021892],[115.000674,-34.019994],[115.000958,-34.017933],[115.001249,-34.016615],[115.001244,-34.015578],[115.0011,-34.01429],[115.000504,-34.012415],[114.997556,-34.007009],[114.997445,-34.00612],[114.99658,-34.00456],[114.99665,-34.004024],[114.997321,-34.003008],[114.99772,-34.00286],[114.997766,-34.002731],[114.996791,-34.002338],[114.995804,-34.00124],[114.995502,-34.000995],[114.994788,-34.000611],[114.994721,-34.000498],[114.994866,-34.000257],[114.995417,-34.000143],[114.995864,-33.999637],[114.995863,-33.999265],[114.995729,-33.998793],[114.995468,-33.998418],[114.995417,-33.998155],[114.994905,-33.998082],[114.994933,-33.997625],[114.994473,-33.997136],[114.994246,-33.997068],[114.993778,-33.996455],[114.993705,-33.996054],[114.992803,-33.993463],[114.991856,-33.993427],[114.991391,-33.993724],[114.991227,-33.993731],[114.991192,-33.993895],[114.990595,-33.993191],[114.989813,-33.992799],[114.9899,-33.99232],[114.990209,-33.991687],[114.990553,-33.991291],[114.990953,-33.991166],[114.990837,-33.990971],[114.991057,-33.990705],[114.990947,-33.990539],[114.99119,-33.99027],[114.991396,-33.989576],[114.991505,-33.989586],[114.991579,-33.989257],[114.991329,-33.988037],[114.991358,-33.987828],[114.990853,-33.986937],[114.990634,-33.986105],[114.990481,-33.984741],[114.989845,-33.98303],[114.989846,-33.982711],[114.990182,-33.981748],[114.99038,-33.980717],[114.990756,-33.980113],[114.990936,-33.979935],[114.992078,-33.979865],[114.992396,-33.979665],[114.991625,-33.979047],[114.990742,-33.978093],[114.989964,-33.977937],[114.989855,-33.978028],[114.989949,-33.977977],[114.989852,-33.978298],[114.989577,-33.978489],[114.989512,-33.97815],[114.989206,-33.977523],[114.989171,-33.977231],[114.988926,-33.977149],[114.98887,-33.977028],[114.987177,-33.977113],[114.986129,-33.976993],[114.985866,-33.976844],[114.985876,-33.976493],[114.986209,-33.976056],[114.986359,-33.975969],[114.986808,-33.974569],[114.986962,-33.973384],[114.986817,-33.972615],[114.98698,-33.972081],[114.987215,-33.971688],[114.987099,-33.971571],[114.98716,-33.971466],[114.987091,-33.971474],[114.986128,-33.970318],[114.98491,-33.969467],[114.984769,-33.969194],[114.984077,-33.968829],[114.984036,-33.968636],[114.984407,-33.968512],[114.984491,-33.968281],[114.983961,-33.967684],[114.984001,-33.967381],[114.983761,-33.967187],[114.983639,-33.966803],[114.983315,-33.966381],[114.983376,-33.966238],[114.983324,-33.966099],[114.983512,-33.965903],[114.983661,-33.965086],[114.983537,-33.964697],[114.983619,-33.964484],[114.983394,-33.964101],[114.983593,-33.963693],[114.983159,-33.963544],[114.982836,-33.963257],[114.982234,-33.962457],[114.982758,-33.961802],[114.983178,-33.961659],[114.983287,-33.961525],[114.983647,-33.961579],[114.983595,-33.961467],[114.983318,-33.961287],[114.983345,-33.961186],[114.984482,-33.960366],[114.985568,-33.95977],[114.986759,-33.958598],[114.987537,-33.958225],[114.988112,-33.958058],[114.989091,-33.957442],[114.989482,-33.95701],[114.989761,-33.956516],[114.989679,-33.956056],[114.989725,-33.955882],[114.990664,-33.955471],[114.991231,-33.955322],[114.991606,-33.955104],[114.992519,-33.953688],[114.992649,-33.953131],[114.992537,-33.952697],[114.992664,-33.952256],[114.992439,-33.951875],[114.992582,-33.951737],[114.992562,-33.951545],[114.992736,-33.951424],[114.992842,-33.951224],[114.992752,-33.950998],[114.992915,-33.950595],[114.993124,-33.949557],[114.993012,-33.949135],[114.993124,-33.948542],[114.992917,-33.947357],[114.993032,-33.946473],[114.992909,-33.945373],[114.992842,-33.94512],[114.992522,-33.944778],[114.992507,-33.944635],[114.992724,-33.944216],[114.992943,-33.943997],[114.99319,-33.943971],[114.993272,-33.944064],[114.993368,-33.94405],[114.993688,-33.943748],[114.993763,-33.944108],[114.993983,-33.943918],[114.994042,-33.944245],[114.994236,-33.944009],[114.994441,-33.944615],[114.99459,-33.9445],[114.99473,-33.944139],[114.994282,-33.943326],[114.994476,-33.94303],[114.994651,-33.942363],[114.994539,-33.942002],[114.994401,-33.941915],[114.994271,-33.941614],[114.99447,-33.941079],[114.994709,-33.940881],[114.99544,-33.940577],[114.995706,-33.940258],[114.995939,-33.939243],[114.996128,-33.939045],[114.995983,-33.938738],[114.996069,-33.938536],[114.996408,-33.938485],[114.99669,-33.938294],[114.996894,-33.938268],[114.997187,-33.938268],[114.997379,-33.938385],[114.997755,-33.938428],[114.998037,-33.938219],[114.998121,-33.938017],[114.997947,-33.93772],[114.997606,-33.937492],[114.997273,-33.93713],[114.997163,-33.936778],[114.997281,-33.936658],[114.997604,-33.936573],[114.99774,-33.936317],[114.997567,-33.936202],[114.997447,-33.935746],[114.997303,-33.935452],[114.997163,-33.935353],[114.997264,-33.935187],[114.997588,-33.935318],[114.997892,-33.935342],[114.998258,-33.934924],[114.998255,-33.934721],[114.997715,-33.934312],[114.996889,-33.93399],[114.99683,-33.933906],[114.997124,-33.933579],[114.996994,-33.933436],[114.996747,-33.93276],[114.997341,-33.932506],[114.997599,-33.931995],[114.997129,-33.93183],[114.997008,-33.931674],[114.99669,-33.931582],[114.996725,-33.931344],[114.996615,-33.93107],[114.995994,-33.930833],[114.995567,-33.930473],[114.995567,-33.930317],[114.99577,-33.930212],[114.995914,-33.930305],[114.996012,-33.930251],[114.996335,-33.930285],[114.996549,-33.930178],[114.996837,-33.930251],[114.996902,-33.930068],[114.9974,-33.929915],[114.997332,-33.929771],[114.99749,-33.929628],[114.997326,-33.929283],[114.997488,-33.929013],[114.997462,-33.928863],[114.997121,-33.928594],[114.996446,-33.928332],[114.996713,-33.928049],[114.996763,-33.92768],[114.996242,-33.927145],[114.99656,-33.926539],[114.996681,-33.925914],[114.997158,-33.925564],[114.997978,-33.925342],[114.998166,-33.925146],[114.998612,-33.924927],[114.998486,-33.9235],[114.998528,-33.92077],[114.999247,-33.920497],[114.999642,-33.920266],[115.000341,-33.920206],[115.000502,-33.919875],[115.001024,-33.920007],[115.001836,-33.919777],[115.002474,-33.919376],[115.00339,-33.919274],[115.004368,-33.918675],[115.004457,-33.918401],[115.004465,-33.916083],[115.004415,-33.915911],[115.003917,-33.915697],[115.002405,-33.915398],[115.000886,-33.914724],[115.000755,-33.914572],[115.000438,-33.913708],[114.99997,-33.91297],[114.999119,-33.912582],[114.997973,-33.911647],[114.996669,-33.911092],[114.996567,-33.910896],[114.996628,-33.910652],[114.996538,-33.910401],[114.995697,-33.910437],[114.99476,-33.911036],[114.993722,-33.910831],[114.99336,-33.910652],[114.99256,-33.910438],[114.992038,-33.910437],[114.991632,-33.910154],[114.991679,-33.90991],[114.991501,-33.909347],[114.991505,-33.908844],[114.989912,-33.90888],[114.989474,-33.908628],[114.988719,-33.908522],[114.98849,-33.90816],[114.988477,-33.907856],[114.988757,-33.907135],[114.98876,-33.906512],[114.988976,-33.906164],[114.988883,-33.905716],[114.988658,-33.905244],[114.988812,-33.904742],[114.988635,-33.904447],[114.988429,-33.90352],[114.988138,-33.903043],[114.988101,-33.902451],[114.987948,-33.902176],[114.987971,-33.901754],[114.987843,-33.90131],[114.987798,-33.900641],[114.987642,-33.900151],[114.98722,-33.899409],[114.986967,-33.899222],[114.986742,-33.898707],[114.986775,-33.898432],[114.987102,-33.898301],[114.987111,-33.898167],[114.987443,-33.897912],[114.987582,-33.897651],[114.987234,-33.896744],[114.986771,-33.896178],[114.986664,-33.895775],[114.986752,-33.895398],[114.986638,-33.895215],[114.98651,-33.895223],[114.986418,-33.895016],[114.986546,-33.894719],[114.986723,-33.894539],[114.986876,-33.894112],[114.986762,-33.893877],[114.986789,-33.893714],[114.987028,-33.893492],[114.986706,-33.892126],[114.986758,-33.891756],[114.98722,-33.890897],[114.98724,-33.890604],[114.986587,-33.889407],[114.986126,-33.889174],[114.985955,-33.889007],[114.985791,-33.888319],[114.98543,-33.887504],[114.985116,-33.887243],[114.985306,-33.88672],[114.985234,-33.886467],[114.98547,-33.885983],[114.985188,-33.885667],[114.985088,-33.884292],[114.985208,-33.883592],[114.984867,-33.882904],[114.984684,-33.880592],[114.984368,-33.879794],[114.984058,-33.879358],[114.984017,-33.879062],[114.983803,-33.878736],[114.982439,-33.877816],[114.981635,-33.87756],[114.981242,-33.876993],[114.981226,-33.876878],[114.981474,-33.876447],[114.981727,-33.875074],[114.981617,-33.874617],[114.981707,-33.87389],[114.981601,-33.873555],[114.981619,-33.873242],[114.981568,-33.873081],[114.981253,-33.872888],[114.98098,-33.872516],[114.980704,-33.872304],[114.980575,-33.871803],[114.980278,-33.871418],[114.979776,-33.871063],[114.979544,-33.870709],[114.979489,-33.870401],[114.979557,-33.870237],[114.979423,-33.869862],[114.979497,-33.86899],[114.979388,-33.868612],[114.978971,-33.868245],[114.978901,-33.867977],[114.978961,-33.867862],[114.978868,-33.867729],[114.978914,-33.867636],[114.978668,-33.867426],[114.978375,-33.866665],[114.9783,-33.866097],[114.978372,-33.865864],[114.979182,-33.865566],[114.979644,-33.865631],[114.980183,-33.865812],[114.98042,-33.866049],[114.980805,-33.866192],[114.981697,-33.866037],[114.981862,-33.865835],[114.982052,-33.865776],[114.982744,-33.86596],[114.983125,-33.866261],[114.983578,-33.866289],[114.983634,-33.866378],[114.983549,-33.866698],[114.983856,-33.867082],[114.983865,-33.867334],[114.98403,-33.867483],[114.984271,-33.867488],[114.984421,-33.867751],[114.984339,-33.868213],[114.984101,-33.868312],[114.984072,-33.868574],[114.984316,-33.868823],[114.984818,-33.868996],[114.985036,-33.868901],[114.985018,-33.868984],[114.984962,-33.868955],[114.98506,-33.869023],[114.984971,-33.868898],[114.984806,-33.869004],[114.984275,-33.868817],[114.984026,-33.868453],[114.984062,-33.868323],[114.984322,-33.868233],[114.984374,-33.868046],[114.984853,-33.86762],[114.985281,-33.866697],[114.984967,-33.866316],[114.98496,-33.866039],[114.984738,-33.86568],[114.985128,-33.865476],[114.986481,-33.865127],[114.986484,-33.865068],[114.986163,-33.864981],[114.986203,-33.864805],[114.986748,-33.86463],[114.987488,-33.864091],[114.987684,-33.864038],[114.987917,-33.86416],[114.988244,-33.864084],[114.988376,-33.863629],[114.988675,-33.863366],[114.988956,-33.862664],[114.989384,-33.862162],[114.989553,-33.861471],[114.989521,-33.861177],[114.988786,-33.859281],[114.988282,-33.85848],[114.988036,-33.858279],[114.987706,-33.858151],[114.987388,-33.858127],[114.987055,-33.858361],[114.986939,-33.858263],[114.986934,-33.858098],[114.986438,-33.858001],[114.986486,-33.857855],[114.986198,-33.857554],[114.986347,-33.856839],[114.986537,-33.856885],[114.986693,-33.856654],[114.986981,-33.856504],[114.987158,-33.856601],[114.987395,-33.856506],[114.987564,-33.856384],[114.987621,-33.856161],[114.988181,-33.855849],[114.988292,-33.855659],[114.988275,-33.854636],[114.988484,-33.854469],[114.98873,-33.853968],[114.988716,-33.853832],[114.989063,-33.853487],[114.989031,-33.853304],[114.989135,-33.853159],[114.989408,-33.852997],[114.989744,-33.852555],[114.99014,-33.852634],[114.990308,-33.852477],[114.990544,-33.852393],[114.990825,-33.851904],[114.990988,-33.851922],[114.991281,-33.851671],[114.991285,-33.851536],[114.991989,-33.850765],[114.992291,-33.850627],[114.992856,-33.850157],[114.993076,-33.849678],[114.99335,-33.849549],[114.99357,-33.84924],[114.994157,-33.84874],[114.994254,-33.848494],[114.994212,-33.848145],[114.994313,-33.847948],[114.994357,-33.847422],[114.99455,-33.847217],[114.994599,-33.847021],[114.99486,-33.846852],[114.995161,-33.84641],[114.99507,-33.845826],[114.995589,-33.844532],[114.995324,-33.843876],[114.995452,-33.843287],[114.995374,-33.843101],[114.995366,-33.842543],[114.99546,-33.842428],[114.995448,-33.842149],[114.995402,-33.841993],[114.995169,-33.841834],[114.995257,-33.841666],[114.995307,-33.840655],[114.995109,-33.840272],[114.994998,-33.839632],[114.995255,-33.8393],[114.995307,-33.838879],[114.995583,-33.838419],[114.995397,-33.838004],[114.995512,-33.837673],[114.995529,-33.837202],[114.995179,-33.83678],[114.9953,-33.836363],[114.995159,-33.835983],[114.99544,-33.835573],[114.995683,-33.834704],[114.995948,-33.834144],[114.996262,-33.834279],[114.996901,-33.834375],[114.997334,-33.834592],[114.997889,-33.834723],[114.998116,-33.834981],[114.998153,-33.835249],[114.998327,-33.83535],[115.000388,-33.835334],[115.001163,-33.835535],[115.005064,-33.83549],[115.005313,-33.835559],[115.005365,-33.835778],[115.005283,-33.837573],[115.005531,-33.838009],[115.005456,-33.838784],[115.005543,-33.840433],[115.005468,-33.842857],[115.005567,-33.843067],[115.011844,-33.843076],[115.012174,-33.843242],[115.012837,-33.843876],[115.013522,-33.844195],[115.013977,-33.844305],[115.014915,-33.844153],[115.015447,-33.84423],[115.016245,-33.844127],[115.01661,-33.843999],[115.017049,-33.843679],[115.017516,-33.843687],[115.018362,-33.84322],[115.019083,-33.843132],[115.020339,-33.843138],[115.020735,-33.843208],[115.021321,-33.843141],[115.021684,-33.843201],[115.022125,-33.843408],[115.022931,-33.843301],[115.023984,-33.843607],[115.024522,-33.843902],[115.025188,-33.843688],[115.025784,-33.843766],[115.026461,-33.843702],[115.027403,-33.843152],[115.027854,-33.843144],[115.028157,-33.843243],[115.028282,-33.843078],[115.028597,-33.843029],[115.028628,-33.842917],[115.0283,-33.842141],[115.028604,-33.841956],[115.028777,-33.841532],[115.029266,-33.841042],[115.029758,-33.84067],[115.030156,-33.840612],[115.030636,-33.840291],[115.031454,-33.840124],[115.032036,-33.839916],[115.032191,-33.839737],[115.032293,-33.839384],[115.032787,-33.839557],[115.033093,-33.839328],[115.033582,-33.839198],[115.033817,-33.839382],[115.035194,-33.839654],[115.035495,-33.839771],[115.03855,-33.840283],[115.038614,-33.840374],[115.038607,-33.84138],[115.038855,-33.841557],[115.039087,-33.841462],[115.039512,-33.841571],[115.040151,-33.841473],[115.040646,-33.841536],[115.041773,-33.841449],[115.042519,-33.841548],[115.043882,-33.841499],[115.044897,-33.841544],[115.04507,-33.841423],[115.045126,-33.840585],[115.045232,-33.840472],[115.045475,-33.840428],[115.049561,-33.840402],[115.053579,-33.840469],[115.053641,-33.840319],[115.053615,-33.837229],[115.053449,-33.837051],[115.052544,-33.837017],[115.052359,-33.836821],[115.052344,-33.833421],[115.052566,-33.833256],[115.052957,-33.833296],[115.055807,-33.83451],[115.05594,-33.83451],[115.056423,-33.834102],[115.056458,-33.833543],[115.056099,-33.833034],[115.056305,-33.832438],[115.056857,-33.831768],[115.057115,-33.831853],[115.057269,-33.831714],[115.057624,-33.831615],[115.058041,-33.831754],[115.058287,-33.831723],[115.058388,-33.831276],[115.058351,-33.830826],[115.058561,-33.830607]]}},{"type":"Feature","properties":{"year":2026,"color":"#3F5C3A"},"geometry":{"type":"LineString","coordinates":[[115.027197,-34.221423],[115.027619,-34.22116],[115.029344,-34.220752],[115.030484,-34.220025],[115.031054,-34.220041],[115.031373,-34.219937],[115.031717,-34.220211],[115.031779,-34.220496],[115.033139,-34.221023],[115.033338,-34.221594],[115.03359,-34.221782],[115.035824,-34.221731],[115.036357,-34.221783],[115.036177,-34.221645],[115.036163,-34.221507],[115.036515,-34.221342],[115.036474,-34.221043],[115.036748,-34.221013],[115.037554,-34.221482],[115.037969,-34.221545],[115.038181,-34.221974],[115.038611,-34.222125],[115.038699,-34.222071],[115.038679,-34.221906],[115.038899,-34.221773],[115.039038,-34.221544],[115.03929,-34.221557],[115.039849,-34.221415],[115.041961,-34.222816],[115.04246,-34.223355],[115.043641,-34.223582],[115.045586,-34.224146],[115.048302,-34.224773],[115.051648,-34.225664],[115.054275,-34.225814],[115.054554,-34.225108],[115.055023,-34.2244],[115.056196,-34.224338],[115.057551,-34.223814],[115.05813,-34.223715],[115.058973,-34.223686],[115.059335,-34.22359],[115.059625,-34.223286],[115.059713,-34.222888],[115.059673,-34.222559],[115.05979,-34.222425],[115.061246,-34.222522],[115.061835,-34.222292],[115.062189,-34.22241],[115.062774,-34.222381],[115.063341,-34.222576],[115.064425,-34.222592],[115.065805,-34.222735],[115.067085,-34.222405],[115.067196,-34.222257],[115.067238,-34.221804],[115.067153,-34.22079],[115.067255,-34.219885],[115.067272,-34.216661],[115.067195,-34.216131],[115.067269,-34.213583],[115.067055,-34.213433],[115.064975,-34.213476],[115.064645,-34.21342],[115.064272,-34.213228],[115.063633,-34.212579],[115.063459,-34.212171],[115.063544,-34.211718],[115.064394,-34.211049],[115.064449,-34.210878],[115.064361,-34.21037],[115.064099,-34.210028],[115.063909,-34.209421],[115.063913,-34.20913],[115.063655,-34.20875],[115.06333,-34.208542],[115.0634,-34.207806],[115.063304,-34.207503],[115.063887,-34.20678],[115.064149,-34.20657],[115.064488,-34.206517],[115.064846,-34.206321],[115.065316,-34.206295],[115.065675,-34.206134],[115.066147,-34.206152],[115.066713,-34.205839],[115.067509,-34.205796],[115.067898,-34.205666],[115.067999,-34.205231],[115.068732,-34.204845],[115.068523,-34.204611],[115.068813,-34.204392],[115.069053,-34.203947],[115.069266,-34.203811],[115.069956,-34.203658],[115.070026,-34.20323],[115.070193,-34.203008],[115.071647,-34.20208],[115.07208,-34.201593],[115.07324,-34.20089],[115.073687,-34.200488],[115.074245,-34.199458],[115.074201,-34.199252],[115.073778,-34.198821],[115.073998,-34.198088],[115.074292,-34.197984],[115.074677,-34.197477],[115.074718,-34.197232],[115.074614,-34.196762],[115.074796,-34.196495],[115.074735,-34.196193],[115.074868,-34.195356],[115.075101,-34.195099],[115.075424,-34.194912],[115.07589,-34.194236],[115.075976,-34.193963],[115.075812,-34.193617],[115.075806,-34.193406],[115.076112,-34.192694],[115.075729,-34.192362],[115.075717,-34.191985],[115.07532,-34.191427],[115.075093,-34.190399],[115.075131,-34.189816],[115.075293,-34.189594],[115.075664,-34.189313],[115.075971,-34.189157],[115.076327,-34.189116],[115.076615,-34.188744],[115.076523,-34.188697],[115.076311,-34.188746],[115.076159,-34.188653],[115.075837,-34.188673],[115.075609,-34.188468],[115.075151,-34.188653],[115.074444,-34.187943],[115.073418,-34.186475],[115.073192,-34.185976],[115.073175,-34.185765],[115.073331,-34.185415],[115.073778,-34.185036],[115.073739,-34.184338],[115.073614,-34.183947],[115.073095,-34.183614],[115.072758,-34.18356],[115.072705,-34.183026],[115.072591,-34.182895],[115.072314,-34.182841],[115.072116,-34.182715],[115.071784,-34.182651],[115.071717,-34.182705],[115.071583,-34.18244],[115.071299,-34.182306],[115.071241,-34.181872],[115.071322,-34.181512],[115.071182,-34.181398],[115.071168,-34.181197],[115.070947,-34.181007],[115.070645,-34.181041],[115.070394,-34.180937],[115.070256,-34.180621],[115.070286,-34.180301],[115.070113,-34.180213],[115.070138,-34.180141],[115.069997,-34.17998],[115.070077,-34.179764],[115.070018,-34.179407],[115.068762,-34.178281],[115.068461,-34.178176],[115.06824,-34.178339],[115.06808,-34.178269],[115.067787,-34.177844],[115.067728,-34.177547],[115.066782,-34.17718],[115.067183,-34.176184],[115.067204,-34.175321],[115.067147,-34.175109],[115.066741,-34.174616],[115.066329,-34.173852],[115.066316,-34.17297],[115.066458,-34.172786],[115.06688,-34.172645],[115.067163,-34.172451],[115.067741,-34.171835],[115.067955,-34.171288],[115.068272,-34.170869],[115.068383,-34.170087],[115.069403,-34.167951],[115.06993,-34.16787],[115.070809,-34.167579],[115.072068,-34.167299],[115.07219,-34.167187],[115.071917,-34.166405],[115.070883,-34.164531],[115.070773,-34.163354],[115.07038,-34.1624],[115.070151,-34.161351],[115.069864,-34.160518],[115.068879,-34.159655],[115.067775,-34.158979],[115.067271,-34.158467],[115.066487,-34.157052],[115.06577,-34.156078],[115.065049,-34.155281],[115.064751,-34.153872],[115.064074,-34.152632],[115.063794,-34.151925],[115.06285,-34.15159],[115.062146,-34.151222],[115.061326,-34.150995],[115.060878,-34.150773],[115.060519,-34.150398],[115.060504,-34.149797],[115.061712,-34.149584],[115.061915,-34.149486],[115.062194,-34.149239],[115.062905,-34.148253],[115.063196,-34.147467],[115.063183,-34.147205],[115.063378,-34.146515],[115.063597,-34.14602],[115.064115,-34.145333],[115.064289,-34.144647],[115.064266,-34.144445],[115.064107,-34.143786],[115.063663,-34.143278],[115.063604,-34.142935],[115.064266,-34.139647],[115.064015,-34.138858],[115.063639,-34.138342],[115.063345,-34.138135],[115.062324,-34.137804],[115.061847,-34.13773],[115.059848,-34.136678],[115.059386,-34.136125],[115.057946,-34.134827],[115.057627,-34.134453],[115.057072,-34.133455],[115.055984,-34.132665],[115.055719,-34.132364],[115.055684,-34.132141],[115.055891,-34.131639],[115.055869,-34.131509],[115.055599,-34.130741],[115.054893,-34.129665],[115.054666,-34.129518],[115.054253,-34.128988],[115.053286,-34.128106],[115.05271,-34.127365],[115.051699,-34.126277],[115.050135,-34.124883],[115.049388,-34.124337],[115.049125,-34.123843],[115.048627,-34.123182],[115.049019,-34.122634],[115.050076,-34.121797],[115.049296,-34.121077],[115.048252,-34.119845],[115.047787,-34.118309],[115.046247,-34.114726],[115.046118,-34.114044],[115.046179,-34.112641],[115.04633,-34.112025],[115.047706,-34.110383],[115.047911,-34.109941],[115.04806,-34.108507],[115.047759,-34.107898],[115.0479,-34.107637],[115.048245,-34.107321],[115.048296,-34.106619],[115.047629,-34.106426],[115.046904,-34.105958],[115.046152,-34.105597],[115.044988,-34.105191],[115.043991,-34.104696],[115.043212,-34.104203],[115.042292,-34.103913],[115.04116,-34.103762],[115.040051,-34.103274],[115.0398,-34.103057],[115.039001,-34.10272],[115.037032,-34.101261],[115.035726,-34.100476],[115.035288,-34.099902],[115.035038,-34.099195],[115.034476,-34.09838],[115.033951,-34.09728],[115.033332,-34.096868],[115.033572,-34.095825],[115.033127,-34.095645],[115.032316,-34.094878],[115.032124,-34.094441],[115.031524,-34.093966],[115.030528,-34.092705],[115.029977,-34.092223],[115.028989,-34.091736],[115.028793,-34.091468],[115.028385,-34.091173],[115.027798,-34.090996],[115.02689,-34.091244],[115.026592,-34.091244],[115.025352,-34.091597],[115.024789,-34.091564],[115.024131,-34.091914],[115.022012,-34.092442],[115.021502,-34.092836],[115.021337,-34.092886],[115.020476,-34.092843],[115.019451,-34.092376],[115.01867,-34.092221],[115.018213,-34.092299],[115.017098,-34.092661],[115.015992,-34.092778],[115.015607,-34.092659],[115.015588,-34.091796],[115.015808,-34.091408],[115.015584,-34.09102],[115.015563,-34.090538],[115.015624,-34.083924],[115.016086,-34.083545],[115.017489,-34.083444],[115.017634,-34.083214],[115.018135,-34.083006],[115.018234,-34.082846],[115.018225,-34.082549],[115.017997,-34.082454],[115.017699,-34.082504],[115.017362,-34.082313],[115.01717,-34.082379],[115.017107,-34.082674],[115.017573,-34.083008],[115.01758,-34.083422],[115.016749,-34.08354],[115.016104,-34.083548],[115.015784,-34.083734],[115.015648,-34.083915],[115.015603,-34.091007],[115.015842,-34.091406],[115.015622,-34.091796],[115.015557,-34.092658],[115.014834,-34.092806],[115.01416,-34.093137],[115.013442,-34.093351],[115.011559,-34.093519],[115.00931,-34.093496],[115.007689,-34.09377],[115.007339,-34.093936],[115.006834,-34.094713],[115.006275,-34.095095],[115.005632,-34.09518],[115.004424,-34.095519],[115.004077,-34.09548],[115.003378,-34.095562],[115.002294,-34.095802],[115.001494,-34.095772],[115.001249,-34.095901],[115.000915,-34.095938],[115.000057,-34.095909],[114.999525,-34.095759],[114.998521,-34.095833],[114.997694,-34.09568],[114.99712,-34.097014],[114.99686,-34.097281],[114.9964,-34.097495],[114.996169,-34.097403],[114.995821,-34.096884],[114.995524,-34.096662],[114.995104,-34.096558],[114.994778,-34.096605],[114.994186,-34.096526],[114.994009,-34.096577],[114.993889,-34.096467],[114.994011,-34.095661],[114.994297,-34.095296],[114.99432,-34.094977],[114.994431,-34.094816],[114.994602,-34.094698],[114.994861,-34.094713],[114.995446,-34.094286],[114.995538,-34.09326],[114.995678,-34.092721],[114.995589,-34.09259],[114.995608,-34.092436],[114.99591,-34.092421],[114.996038,-34.092489],[114.996177,-34.092429],[114.996415,-34.092107],[114.996709,-34.092034],[114.997172,-34.091335],[114.998386,-34.090644],[114.998538,-34.090653],[114.998927,-34.09102],[114.999057,-34.091048],[114.999846,-34.090523],[115.000661,-34.090193],[115.001879,-34.08942],[115.002333,-34.088903],[115.002671,-34.08836],[115.003051,-34.087455],[115.004415,-34.086516],[115.005002,-34.085215],[115.005765,-34.084736],[115.006395,-34.08356],[115.007564,-34.082177],[115.008187,-34.081675],[115.008686,-34.080846],[115.008554,-34.080785],[115.007915,-34.080873],[115.007631,-34.080788],[115.006887,-34.080956],[115.006686,-34.080734],[115.006485,-34.080206],[115.005769,-34.079947],[115.005379,-34.079377],[115.005144,-34.07925],[115.005181,-34.079154],[115.004919,-34.078699],[115.004537,-34.078346],[115.004468,-34.078167],[115.004522,-34.078021],[115.004307,-34.077619],[115.004489,-34.077255],[115.004443,-34.076935],[115.00411,-34.076438],[115.004476,-34.076007],[115.004367,-34.075708],[115.004553,-34.075349],[115.004504,-34.074994],[115.004643,-34.074706],[115.004403,-34.074521],[115.004302,-34.074295],[115.004347,-34.074105],[115.00449,-34.074106],[115.004685,-34.073944],[115.004612,-34.073739],[115.00471,-34.073469],[115.00445,-34.073131],[115.004515,-34.072845],[115.004388,-34.072479],[115.003926,-34.072147],[115.003361,-34.071994],[115.003245,-34.071663],[115.002821,-34.071226],[115.002832,-34.071072],[115.002596,-34.070782],[115.002611,-34.070561],[115.002839,-34.070468],[115.00293,-34.070278],[115.002721,-34.069816],[115.002767,-34.069696],[115.002602,-34.069503],[115.002396,-34.069437],[115.002595,-34.069013],[115.002044,-34.068842],[115.0021,-34.068532],[115.001897,-34.068522],[115.001863,-34.067263],[115.001942,-34.06712],[115.001846,-34.066843],[115.002193,-34.066657],[115.002229,-34.06655],[115.002124,-34.06633],[115.00178,-34.066181],[115.00178,-34.065765],[115.00169,-34.065639],[115.001989,-34.065337],[115.001934,-34.065191],[115.002135,-34.06498],[115.002146,-34.064836],[115.001916,-34.064689],[115.001577,-34.064666],[115.001296,-34.064442],[115.000925,-34.064404],[115.001001,-34.063573],[115.000838,-34.063384],[115.000762,-34.063422],[115.00067,-34.063265],[115.000663,-34.062941],[115.000583,-34.062873],[115.000477,-34.062915],[115.000438,-34.062802],[114.999797,-34.062505],[114.999732,-34.062408],[114.999776,-34.061874],[115.00024,-34.061378],[115.000356,-34.061013],[115.000624,-34.060789],[115.000846,-34.060704],[115.001038,-34.060727],[115.001535,-34.060386],[115.001598,-34.060243],[115.001814,-34.060195],[115.001953,-34.060333],[115.002114,-34.060102],[115.002352,-34.060094],[115.002791,-34.059828],[115.002974,-34.059619],[115.003196,-34.059516],[115.003442,-34.058916],[115.003827,-34.058468],[115.003477,-34.057984],[115.003005,-34.057807],[115.002923,-34.057477],[115.002649,-34.057313],[115.00242,-34.056938],[115.001742,-34.056413],[115.00142,-34.056025],[115.001395,-34.055586],[115.001201,-34.055163],[115.001139,-34.054472],[115.000457,-34.054179],[115.000525,-34.053988],[115.000435,-34.053794],[115.000517,-34.053622],[115.000926,-34.053509],[115.001142,-34.05333],[115.001378,-34.053266],[115.001514,-34.053025],[115.001913,-34.052645],[115.002284,-34.051742],[115.002298,-34.050859],[115.002001,-34.050586],[115.001956,-34.05002],[115.001755,-34.049475],[115.001992,-34.048734],[115.002361,-34.048025],[115.002136,-34.047848],[115.001913,-34.047891],[115.001889,-34.047628],[115.001652,-34.047567],[115.001476,-34.047144],[115.001115,-34.046882],[115.001357,-34.046306],[115.001297,-34.045622],[115.001499,-34.044955],[115.000803,-34.042165],[115.000766,-34.041807],[115.000854,-34.041409],[115.000489,-34.041154],[115.000224,-34.040674],[115.00012,-34.040163],[114.999864,-34.039893],[114.999566,-34.03976],[114.999576,-34.039409],[114.999229,-34.039073],[114.999311,-34.038955],[114.999272,-34.038852],[114.999541,-34.038601],[114.999396,-34.038263],[114.999561,-34.038122],[114.999554,-34.038018],[114.999794,-34.037961],[115.000054,-34.037781],[115.000806,-34.036996],[115.001044,-34.036139],[115.001042,-34.035707],[115.000884,-34.035245],[115.001663,-34.034295],[115.001811,-34.033836],[115.001983,-34.03369],[115.002116,-34.033364],[115.001846,-34.032345],[115.00128,-34.03095],[115.001077,-34.03018],[115.001042,-34.029556],[115.000832,-34.028738],[115.000875,-34.02771],[115.000765,-34.027071],[115.000856,-34.026654],[115.000831,-34.025908],[115.000178,-34.022134],[115.000324,-34.020481],[115.00025,-34.019577],[115.000297,-34.01879],[115.000727,-34.017231],[115.000899,-34.016201],[115.000889,-34.014804],[115.000693,-34.013715],[115.000383,-34.012707],[115.000152,-34.012242],[115.000021,-34.011619],[114.999702,-34.011137],[114.999181,-34.010017],[114.998562,-34.009023],[114.997365,-34.00667],[114.997051,-34.005901],[114.996933,-34.005136],[114.996544,-34.004467],[114.996591,-34.004086],[114.997284,-34.003015],[114.99773,-34.002845],[114.997765,-34.002705],[114.997392,-34.002613],[114.996825,-34.002338],[114.995561,-34.001079],[114.99482,-34.000641],[114.994724,-34.000501],[114.994838,-34.000254],[114.995402,-34.00015],[114.995861,-33.999675],[114.995859,-33.999226],[114.995681,-33.998704],[114.995437,-33.998373],[114.995396,-33.998139],[114.995263,-33.998079],[114.994906,-33.998089],[114.994907,-33.997592],[114.994468,-33.997123],[114.994234,-33.997065],[114.993786,-33.996452],[114.99278,-33.993462],[114.991856,-33.993409],[114.991495,-33.993588],[114.991403,-33.993722],[114.99121,-33.993727],[114.991177,-33.993894],[114.990758,-33.993294],[114.990163,-33.992913],[114.989804,-33.992782],[114.989893,-33.992289],[114.99022,-33.991622],[114.990578,-33.991221],[114.990921,-33.991155],[114.990823,-33.990966],[114.991044,-33.990657],[114.990942,-33.990541],[114.991292,-33.989883],[114.991379,-33.98953],[114.9915,-33.989557],[114.991572,-33.989252],[114.991319,-33.988026],[114.991353,-33.987821],[114.990842,-33.986956],[114.99064,-33.986156],[114.990466,-33.984726],[114.989821,-33.983028],[114.989822,-33.982713],[114.990108,-33.981987],[114.990365,-33.9807],[114.990735,-33.980088],[114.990928,-33.979906],[114.991544,-33.9799],[114.992223,-33.979791],[114.992371,-33.979705],[114.992345,-33.979544],[114.991976,-33.979433],[114.990697,-33.978064],[114.989942,-33.977937],[114.989805,-33.978323],[114.989556,-33.978455],[114.989163,-33.977268],[114.98886,-33.977029],[114.987045,-33.977106],[114.98617,-33.977012],[114.98588,-33.976893],[114.985856,-33.976519],[114.986317,-33.97597],[114.986523,-33.975525],[114.986883,-33.974132],[114.986944,-33.973286],[114.986809,-33.972571],[114.986937,-33.972074],[114.987192,-33.971726],[114.987073,-33.971567],[114.987154,-33.97144],[114.987086,-33.971468],[114.986721,-33.970939],[114.98654,-33.970456],[114.986201,-33.970089],[114.985889,-33.96987],[114.984879,-33.969469],[114.984791,-33.969221],[114.984485,-33.969083],[114.984467,-33.968984],[114.984095,-33.968843],[114.984029,-33.968739],[114.984044,-33.968607],[114.984394,-33.968506],[114.984491,-33.96825],[114.983943,-33.967685],[114.984031,-33.967544],[114.983998,-33.967379],[114.983743,-33.967153],[114.983455,-33.966489],[114.983286,-33.966375],[114.983328,-33.966054],[114.983491,-33.965904],[114.983647,-33.965109],[114.98351,-33.96471],[114.983604,-33.964474],[114.983504,-33.964221],[114.983372,-33.964113],[114.983564,-33.963679],[114.983112,-33.96353],[114.982635,-33.963083],[114.982186,-33.962471],[114.982741,-33.96179],[114.983086,-33.961675],[114.983265,-33.961504],[114.983609,-33.961585],[114.983624,-33.961498],[114.98329,-33.961256],[114.983405,-33.96108],[114.983666,-33.960988],[114.984675,-33.960214],[114.985126,-33.960043],[114.98565,-33.959685],[114.986929,-33.958461],[114.987615,-33.958175],[114.988035,-33.958082],[114.989123,-33.957293],[114.989554,-33.956732],[114.989549,-33.956139],[114.989686,-33.955857],[114.990666,-33.955451],[114.991223,-33.955306],[114.991566,-33.955099],[114.99237,-33.953751],[114.992523,-33.953174],[114.992508,-33.952705],[114.992653,-33.952261],[114.992403,-33.951899],[114.992551,-33.951742],[114.992533,-33.951536],[114.992709,-33.951435],[114.992821,-33.951236],[114.992722,-33.950997],[114.992902,-33.950596],[114.993114,-33.949535],[114.992754,-33.947653],[114.992817,-33.94707],[114.992992,-33.946524],[114.992983,-33.946233],[114.9928,-33.945086],[114.992512,-33.944776],[114.992512,-33.944596],[114.992922,-33.943976],[114.993203,-33.943968],[114.993251,-33.944064],[114.993345,-33.944054],[114.99363,-33.943744],[114.993697,-33.943779],[114.993739,-33.944076],[114.993971,-33.943902],[114.994031,-33.944232],[114.994209,-33.944001],[114.994439,-33.944617],[114.994576,-33.944484],[114.994736,-33.944159],[114.99426,-33.943325],[114.994373,-33.943224],[114.994628,-33.942443],[114.994537,-33.942015],[114.994375,-33.941886],[114.994259,-33.94163],[114.994332,-33.941295],[114.994677,-33.94089],[114.995418,-33.940564],[114.995698,-33.94026],[114.995918,-33.939236],[114.996116,-33.938994],[114.995971,-33.938731],[114.996039,-33.938534],[114.99693,-33.938259],[114.997172,-33.938253],[114.997382,-33.938367],[114.997732,-33.938411],[114.998012,-33.938225],[114.998113,-33.937999],[114.997979,-33.937894],[114.997921,-33.9377],[114.997569,-33.937479],[114.997259,-33.937128],[114.997156,-33.936792],[114.997254,-33.936677],[114.997593,-33.936559],[114.997735,-33.936316],[114.997541,-33.936192],[114.99758,-33.936094],[114.997447,-33.935976],[114.997314,-33.935475],[114.997141,-33.935377],[114.997173,-33.935244],[114.99728,-33.93519],[114.997877,-33.935342],[114.998257,-33.934934],[114.998262,-33.934728],[114.997734,-33.934329],[114.996848,-33.933953],[114.996892,-33.93379],[114.997121,-33.933558],[114.996979,-33.933431],[114.996958,-33.933236],[114.996713,-33.932779],[114.996772,-33.932686],[114.997313,-33.932498],[114.997612,-33.931992],[114.997137,-33.931842],[114.997008,-33.931671],[114.996661,-33.931582],[114.996722,-33.931348],[114.996571,-33.931031],[114.99598,-33.930835],[114.995544,-33.930447],[114.995558,-33.930308],[114.995774,-33.930205],[114.995905,-33.930297],[114.996003,-33.930247],[114.996317,-33.930284],[114.996556,-33.930173],[114.996793,-33.930246],[114.996888,-33.930068],[114.99739,-33.929911],[114.997324,-33.929773],[114.997486,-33.929612],[114.997317,-33.92932],[114.997336,-33.92914],[114.997474,-33.928999],[114.997449,-33.928841],[114.997102,-33.92858],[114.996439,-33.92834],[114.996715,-33.928018],[114.99675,-33.92758],[114.996473,-33.927434],[114.996225,-33.927135],[114.996561,-33.926533],[114.996666,-33.926094],[114.996626,-33.925945],[114.996714,-33.925855],[114.997209,-33.925516],[114.997966,-33.925328],[114.998151,-33.925129],[114.998583,-33.92496],[114.998608,-33.924092],[114.998496,-33.923385],[114.998499,-33.922177],[114.998567,-33.921909],[114.998492,-33.920912],[114.998553,-33.920762],[114.999261,-33.920478],[114.999635,-33.920243],[115.000297,-33.920207],[115.000494,-33.919868],[115.000862,-33.919995],[115.001222,-33.91995],[115.001834,-33.919785],[115.00244,-33.919369],[115.003362,-33.919261],[115.004385,-33.918645],[115.004453,-33.91831],[115.004451,-33.915994],[115.004371,-33.915882],[115.003745,-33.915621],[115.002146,-33.915302],[115.000901,-33.914718],[115.000735,-33.914559],[115.000546,-33.914157],[115.000443,-33.913706],[114.999943,-33.912946],[114.999064,-33.912524],[114.998101,-33.911715],[114.996656,-33.911064],[114.996528,-33.910839],[114.996618,-33.910656],[114.996527,-33.910376],[114.995799,-33.910375],[114.994789,-33.911043],[114.993826,-33.910855],[114.9933,-33.910631],[114.99257,-33.910444],[114.99203,-33.910436],[114.991642,-33.910193],[114.991665,-33.90988],[114.991473,-33.909288],[114.991502,-33.908838],[114.990801,-33.908823],[114.990043,-33.908912],[114.989645,-33.908772],[114.989488,-33.908634],[114.988706,-33.908524],[114.988458,-33.908135],[114.988458,-33.907829],[114.988664,-33.907464],[114.98878,-33.906854],[114.988716,-33.906516],[114.988968,-33.906178],[114.988633,-33.905258],[114.98879,-33.90473],[114.988498,-33.904096],[114.988422,-33.903543],[114.988129,-33.903042],[114.988074,-33.902479],[114.987911,-33.902109],[114.987955,-33.901751],[114.98785,-33.901079],[114.98761,-33.900144],[114.987226,-33.899389],[114.986948,-33.899222],[114.986717,-33.898704],[114.986703,-33.898454],[114.987087,-33.898289],[114.987097,-33.898149],[114.98739,-33.897933],[114.987537,-33.897622],[114.987486,-33.897336],[114.987302,-33.897133],[114.987195,-33.896714],[114.986753,-33.896168],[114.986646,-33.895771],[114.986713,-33.895363],[114.986617,-33.895206],[114.986484,-33.895214],[114.986395,-33.895009],[114.986507,-33.894744],[114.986725,-33.89451],[114.986717,-33.894329],[114.986855,-33.894103],[114.986723,-33.893763],[114.986995,-33.893461],[114.986688,-33.892136],[114.986748,-33.891759],[114.987212,-33.890844],[114.987215,-33.890601],[114.986564,-33.889397],[114.986092,-33.889164],[114.985932,-33.889],[114.985781,-33.88833],[114.98562,-33.8881],[114.985414,-33.887481],[114.9851,-33.887234],[114.985122,-33.88697],[114.985272,-33.886699],[114.985207,-33.88647],[114.98545,-33.885989],[114.985162,-33.885665],[114.985064,-33.884253],[114.985188,-33.883605],[114.98485,-33.882899],[114.984662,-33.880564],[114.983812,-33.878753],[114.983535,-33.878539],[114.983091,-33.878413],[114.982791,-33.87806],[114.982453,-33.877836],[114.981605,-33.877542],[114.981224,-33.876962],[114.981474,-33.876423],[114.981696,-33.875029],[114.981607,-33.87462],[114.981692,-33.873897],[114.981574,-33.873547],[114.981593,-33.873132],[114.981218,-33.872867],[114.980982,-33.872541],[114.980667,-33.872295],[114.980567,-33.871865],[114.980298,-33.871451],[114.979758,-33.871058],[114.979521,-33.870726],[114.979458,-33.87035],[114.979536,-33.870234],[114.979376,-33.869547],[114.978944,-33.86909],[114.979064,-33.868844],[114.979058,-33.868578],[114.978938,-33.868375],[114.978886,-33.867583],[114.978673,-33.867439],[114.978524,-33.8671],[114.978365,-33.866686],[114.978274,-33.866071],[114.978378,-33.865842],[114.979216,-33.865559],[114.979602,-33.865591],[114.979787,-33.865712],[114.980129,-33.865775],[114.980415,-33.866021],[114.98084,-33.866181],[114.981713,-33.866001],[114.981863,-33.865805],[114.981994,-33.865758],[114.982805,-33.865966],[114.983106,-33.866237],[114.983554,-33.866268],[114.983603,-33.866416],[114.983512,-33.866687],[114.983846,-33.867091],[114.983855,-33.86736],[114.983967,-33.867448],[114.984263,-33.867488],[114.984507,-33.867965],[114.98435,-33.868051],[114.984336,-33.868217],[114.984107,-33.868394],[114.984112,-33.868636],[114.98464,-33.869036],[114.984853,-33.869112],[114.985118,-33.869084],[114.985219,-33.868979],[114.985153,-33.868911],[114.985032,-33.868932],[114.985076,-33.86887],[114.98501,-33.869057],[114.98503,-33.868875],[114.984797,-33.868992],[114.984581,-33.868988],[114.98416,-33.868697],[114.984059,-33.868491],[114.984349,-33.868061],[114.984864,-33.867556],[114.98511,-33.866889],[114.985279,-33.866668],[114.984946,-33.866326],[114.984945,-33.866085],[114.984746,-33.865753],[114.984763,-33.865629],[114.985228,-33.865414],[114.986456,-33.865125],[114.986473,-33.865044],[114.986153,-33.864981],[114.986214,-33.864773],[114.986711,-33.864615],[114.987485,-33.864055],[114.98768,-33.864018],[114.987892,-33.864139],[114.988181,-33.864109],[114.988355,-33.863603],[114.988686,-33.863304],[114.988994,-33.862522],[114.989359,-33.862148],[114.989522,-33.8613],[114.988929,-33.859577],[114.988283,-33.858487],[114.988064,-33.858298],[114.987494,-33.858133],[114.987275,-33.858159],[114.987018,-33.858328],[114.986915,-33.858239],[114.986892,-33.858072],[114.98641,-33.857972],[114.986443,-33.85784],[114.986198,-33.857587],[114.986339,-33.85683],[114.986513,-33.856886],[114.986693,-33.85663],[114.986975,-33.856496],[114.987125,-33.856603],[114.987376,-33.856501],[114.987537,-33.856385],[114.987618,-33.856142],[114.988146,-33.855875],[114.988265,-33.855686],[114.988261,-33.854644],[114.988458,-33.854485],[114.98861,-33.854195],[114.988684,-33.853828],[114.989029,-33.853505],[114.988997,-33.853302],[114.989095,-33.853155],[114.98939,-33.85299],[114.989408,-33.852862],[114.9897,-33.852543],[114.990058,-33.852555],[114.990127,-33.852631],[114.990286,-33.852452],[114.990514,-33.85239],[114.990822,-33.851873],[114.990975,-33.851889],[114.991288,-33.851613],[114.991359,-33.851397],[114.991819,-33.850991],[114.991947,-33.850763],[114.992626,-33.850346],[114.992875,-33.85011],[114.993133,-33.849739],[114.993122,-33.849641],[114.993317,-33.849553],[114.993805,-33.848985],[114.994145,-33.848719],[114.99433,-33.847404],[114.994551,-33.847163],[114.994574,-33.847008],[114.994839,-33.846847],[114.995152,-33.846403],[114.995155,-33.84597],[114.995066,-33.845821],[114.99557,-33.844586],[114.995318,-33.843867],[114.995447,-33.84326],[114.995351,-33.842717],[114.995436,-33.842119],[114.995362,-33.841938],[114.995165,-33.841831],[114.995317,-33.840704],[114.995113,-33.84032],[114.994995,-33.839574],[114.995237,-33.839315],[114.995295,-33.838866],[114.995573,-33.838392],[114.995393,-33.83801],[114.995521,-33.837651],[114.995527,-33.837191],[114.995171,-33.836742],[114.995301,-33.836365],[114.995143,-33.836019],[114.995454,-33.835519],[114.995682,-33.834694],[114.995963,-33.834124],[114.996272,-33.834269],[114.996865,-33.834349],[114.997263,-33.834495],[114.997347,-33.834601],[114.997811,-33.834714],[114.99803,-33.834914],[114.998143,-33.835246],[114.998329,-33.835328],[115.000325,-33.835324],[115.001218,-33.835514],[115.005029,-33.83546],[115.005294,-33.835577],[115.005379,-33.835756],[115.005282,-33.836296],[115.005306,-33.837567],[115.005509,-33.838011],[115.005454,-33.842925],[115.005551,-33.84305],[115.007041,-33.843063],[115.007436,-33.843166],[115.007616,-33.843112],[115.011938,-33.843142],[115.012218,-33.843285],[115.012819,-33.843847],[115.013425,-33.84414],[115.013996,-33.844289],[115.01492,-33.84412],[115.015418,-33.844211],[115.016181,-33.844121],[115.016572,-33.843995],[115.016975,-33.843702],[115.017657,-33.843625],[115.018341,-33.843183],[115.018964,-33.843112],[115.020359,-33.843119],[115.020764,-33.843186],[115.021376,-33.843123],[115.021654,-33.843173],[115.022069,-33.84337],[115.022976,-33.843272],[115.02397,-33.843568],[115.024536,-33.843872],[115.025181,-33.843662],[115.025897,-33.843751],[115.026438,-33.843684],[115.027333,-33.843144],[115.02784,-33.84314],[115.028151,-33.84322],[115.028264,-33.84307],[115.028583,-33.843019],[115.028609,-33.842862],[115.028285,-33.842108],[115.028569,-33.841969],[115.028744,-33.841516],[115.029153,-33.841095],[115.029654,-33.840741],[115.029866,-33.840413],[115.030741,-33.83955],[115.031096,-33.83935],[115.032184,-33.83931],[115.032796,-33.839525],[115.033078,-33.839335],[115.03357,-33.839192],[115.033726,-33.839263],[115.033729,-33.839358],[115.035135,-33.839623],[115.035467,-33.839762],[115.037389,-33.840058],[115.038117,-33.840245],[115.038561,-33.840261],[115.038626,-33.840363],[115.038593,-33.841352],[115.038835,-33.841548],[115.039098,-33.841476],[115.039411,-33.841567],[115.040148,-33.841461],[115.040671,-33.84152],[115.041576,-33.841453],[115.042486,-33.841552],[115.043776,-33.841478],[115.044915,-33.841533],[115.045049,-33.841416],[115.045087,-33.840639],[115.045233,-33.840491],[115.045559,-33.840424],[115.050726,-33.840399],[115.053541,-33.840462],[115.053631,-33.840248],[115.053651,-33.839341],[115.053594,-33.837221],[115.053469,-33.837061],[115.052563,-33.836993],[115.052323,-33.836804],[115.052331,-33.833386],[115.052613,-33.833249],[115.053077,-33.833359],[115.055903,-33.834491],[115.056291,-33.834225],[115.056396,-33.834018],[115.056449,-33.833576],[115.056136,-33.833237],[115.056055,-33.832998],[115.056285,-33.832377],[115.056861,-33.831763],[115.057098,-33.831811],[115.057239,-33.831696],[115.057428,-33.83171],[115.057547,-33.831622],[115.058138,-33.831674],[115.058317,-33.831614],[115.058399,-33.831244],[115.058343,-33.830837],[115.058442,-33.830661]]}}]}